school_name,url_address,address,postal_code,telephone_no,telephone_no_2,fax_no,fax_no_2,email_address,mrt_desc,bus_desc,principal_name,first_vp_name,second_vp_name,third_vp_name,fourth_vp_name,fifth_vp_name,sixth_vp_name,dgp_code,zone_code,type_code,nature_code,session_code,mainlevel_code,sap_ind,autonomous_ind,gifted_ind,ip_ind,mothertongue1_code,mothertongue2_code,mothertongue3_code,latitude,longitude
NANYANG PRIMARY SCHOOL,http://www.nyps.moe.edu.sg,52   KING'S ROAD,268097,64672677,na,64686913,na,NYPS@MOE.EDU.SG,Farrer Rd MRT Station,"66, 67, 74, 93, 151, 153, 154, 156, 157, 165, 170, 171, 174, 186, 852, 855, 961",MDM LER JIA LUEN,MDM NG BOON IN,MR CHAN CHEONG CHEONG,,,,,BUKIT TIMAH,WEST,GOVERNMENT-AIDED SCH,CO-ED SCHOOL,SINGLE SESSION,PRIMARY,Yes,No,Yes,No,Chinese,na,na,1.32083185,103.8082166
TAO NAN SCHOOL,http://www.taonan.moe.edu.sg,49   MARINE CRESCENT,449761,64428307,na,64435973,na,taonan_sch@moe.edu.sg,"Paya Lebar, Eunos","13, 16, 31, 36, 43, 48, 55, 134, 196, 197",MDM POH QINYU,MR LEOW YEN MIN (LIAO YANMING),MISS CHOW CHIA MIN AGNES,,,,,MARINE PARADE,EAST,GOVERNMENT-AIDED SCH,CO-ED SCHOOL,SINGLE SESSION,PRIMARY,Yes,No,Yes,No,Chinese,na,na,1.30492865,103.9111451
CATHOLIC HIGH SCHOOL,http://www.catholichigh.moe.edu.sg,9    BISHAN STREET 22,579767,64582177 (Secondary),64589869 (Primary),64561322 (Secondary),64593938 (Primary),chs@moe.edu.sg,BISHAN MRT,"13, 52, 54, 88, 156, 162, 162M, 410",MR POH CHUN LECK,MISS HO PING PING,MS TAN PEY SAN,MR TAN KELLY,,,,BISHAN,NORTH,GOVERNMENT-AIDED SCH,BOYS' SCHOOL,SINGLE SESSION,MIXED LEVELS,Yes,Yes,Yes,Yes,Chinese,na,na,1.35492755,103.8449883
NAN HUA PRIMARY SCHOOL,http://www.nanhuapri.moe.edu.sg,30   Jalan Lempeng,128806,67788050,na,67784127,na,nhps@moe.edu.sg,Clementi MRT Station,"30, 51, 143, 175, 201, 533, 655, 727, 762",MDM CHIA HUI KHIM,MDM JOSEPHINE NG,MISS TAN PEIRU,,,,,CLEMENTI,WEST,GOVERNMENT-AIDED SCH,CO-ED SCHOOL,DOUBLE SESSION,PRIMARY,Yes,No,Yes,No,Chinese,na,na,1.31983825,103.7616751
ST. HILDA'S PRIMARY SCHOOL,http://www.shps.moe.edu.sg,2    Tampines Ave 3,529706,67811916,na,67830527,na,shps@moe.edu.sg,"Tampines West, Tampines Central",Feeder Bus service: 293 from Tampines Interchange (towards St 71),MDM LEONG BENG YUET DAPHNE,MR ANG WEI TECK,MDM GOH HUI CHENG,,,,,TAMPINES,EAST,GOVERNMENT-AIDED SCH,CO-ED SCHOOL,SINGLE SESSION,PRIMARY,No,No,Yes,No,Chinese,Malay,Tamil,1.3493751,103.9365936
HENRY PARK PRIMARY SCHOOL,http://www.henryparkpri.moe.edu.sg,1    HOLLAND GROVE ROAD,278790,64663600,na,64691840,na,HPPS@MOE.EDU.SG,"Buona Vista MRT, Clementi MRT","7, 61, 75, 156, 157, 165, 92","MR KOH CHIN THONG, MARTIN",MDM WONG SU MAY,MR CHUA CHYE HOCK,,,,,BUKIT TIMAH,WEST,GOVERNMENT SCHOOL,CO-ED SCHOOL,SINGLE SESSION,PRIMARY,No,No,Yes,No,Chinese,Malay,Tamil,1.3170569,103.7842163
ANGLO-CHINESE SCHOOL (PRIMARY),http://www.acspri.moe.edu.sg/,50   BARKER ROAD,309918,62501633,na,63531366,na,acps@moe.edu.sg,Newton MRT Station,"Bus 48, 66, 67, 170, 603, 972M",DR NG SIEW PENG IRENE,MDM CHOH THIAN JENG CELIA,MR CHUA THIAN KEONG,,,,,NOVENA,SOUTH,GOVERNMENT-AIDED SCH,BOYS' SCHOOL,SINGLE SESSION,PRIMARY,No,No,Yes,No,Chinese,Malay,Tamil,1.31875235,103.8350769
RAFFLES GIRLS' PRIMARY SCHOOL,http://www.rafflesgirlspri.moe.edu.sg,21   Hillcrest Road,289072,64684377,na,64692024,na,RGPS@MOE.EDU.SG,TAN KAH KEE MRT STATION,"66, 67, 74, 151, 154, 156, 157, 170, 171, 174, 852, 961",MRS YUE YOKE MUN NEE WAI,MISS CHEN MEI CHUEN,MISS KONG SU MAY,,,,,BUKIT TIMAH,SOUTH,GOVERNMENT SCHOOL,GIRLS' SCHOOL,SINGLE SESSION,PRIMARY,No,No,Yes,No,Chinese,Malay,Tamil,1.33012955,103.8062623
PEI HWA PRESBYTERIAN PRIMARY SCHOOL,http://www.peihwapresbyterianpri.moe.edu.sg/,7    PEI WAH AVENUE,597610,64663787,64663797,64621944,na,phpps@moe.edu.sg,Beauty World,"970, 852, 174, 173, 157, 77, 61",MRS ELSIE POEY,MRS JACQUELINE HIEW,MDM YONG MING WOEI CHLOE,,,,,BUKIT TIMAH,WEST,GOVERNMENT-AIDED SCH,CO-ED SCHOOL,DOUBLE SESSION,PRIMARY,Yes,No,No,No,Chinese,na,na,1.3380993,103.7762188
CHIJ ST. NICHOLAS GIRLS' SCHOOL,http://www.chijstnicholasgirls.moe.edu.sg,501  ANG MO KIO STREET 13,569405,63541839 (Secondary),64549698 (Primary),64511335 (Secondary),64566169 (Primary),chijsng_sec@moe.edu.sg,"ANG MO KIO MRT, YIO CHU KANG MRT, MAYFLOWER MRT (End 2021)","76, 265, 268, 269",MDM FIONA YEO SU LING,MISS YEO TECK WOON,MS BAEY EE-LYN,MDM AMY TAN,MR TING POH LEONG ALOYSIUS,,,ANG MO KIO,NORTH,GOVERNMENT-AIDED SCH,GIRLS' SCHOOL,SINGLE SESSION,MIXED LEVELS,Yes,Yes,No,Yes,Chinese,na,na,1.37344905,103.8340777
ROSYTH SCHOOL,https://www.rosyth.moe.edu.sg,21   Serangoon North Avenue 4,555855,64812273,na,64831102,na,rosyth_sch@schools.gov.sg,"Ang Mo Kio, Serangoon","73, 315, 116",MDM ELIS TAN LEE CHING,MR CHIEW JING WEN,MS POH HWEE THING,,,,,SERANGOON,NORTH,GOVERNMENT SCHOOL,CO-ED SCHOOL,SINGLE SESSION,PRIMARY,No,No,Yes,No,Chinese,Malay,Tamil,1.3728695,103.8745093
KONG HWA SCHOOL,http://www.konghwa.moe.edu.sg,350  GUILLEMARD ROAD,399772,63421195,na,63421120,na,KONGHWA_SCH@MOE.EDU.SG,Dakota,"Service 7,70,70M,197(to Guillemard Road)",MR POON SIOW LENG RAYMOND,MDM FOO MEI PING,MS LEE LEY HAR,,,,,GEYLANG,EAST,GOVERNMENT-AIDED SCH,CO-ED SCHOOL,SINGLE SESSION,PRIMARY,Yes,No,No,No,Chinese,na,na,1.3111918,103.8878575
POI CHING SCHOOL,http://www.poiching.moe.edu.sg,21   TAMPINES STREET 71,529067,67856420,na,67857198,na,contact@poiching.moe.edu.sg,Tampines MRT,"Bus 293, 72, 27 and 168",MDM CHUA YE LING,MDM PEH TAN WEE,MS TAN SEOK KUAN,,,,,TAMPINES,EAST,GOVERNMENT-AIDED SCH,CO-ED SCHOOL,SINGLE SESSION,PRIMARY,Yes,No,No,No,Chinese,na,na,1.3577705,103.9354999
HOLY INNOCENTS' PRIMARY SCHOOL,http://www.holyinnocentspri.moe.edu.sg/,5    Lorong Low Koon,536451,62886516,na,62876393,na,HOLYINNOCENTSPRI@MOE.EDU.SG,2km walk to Hougang MRT,"51,72,80,101,119,132,136,153.",MISS SEET ENG GEOK LENA,MS KOH CHIOW TEE THERESA,MDM YUE  SHARON,,,,,HOUGANG,SOUTH,GOVERNMENT-AIDED SCH,CO-ED SCHOOL,SINGLE SESSION,PRIMARY,Yes,No,No,No,Chinese,na,na,1.37499965,103.8574295
AI TONG SCHOOL,http://www.aitong.moe.edu.sg,100  Bright Hill Drive,579646,64547672,na,64532726,na,AITONG_SCH@MOE.EDU.SG,Bishan MRT,"410, 162, 52",MDM GOH LING LING DIANE,"MDM NG BEE ENG, CINDY",MR YAK BENG WEI,,,,,BISHAN,SOUTH,GOVERNMENT-AIDED SCH,CO-ED SCHOOL,SINGLE SESSION,PRIMARY,Yes,No,No,No,Chinese,na,na,1.36071255,103.8330175
RED SWASTIKA SCHOOL,http://www.redswastika.moe.edu.sg,350  BEDOK NORTH AVENUE 3,469719,64430380,na,62448391,na,REDSWASTIKA@MOE.EDU.SG,Bedok Reservoir MRT,"Bus 14, 17, 28, 46, 66, 67, 69, 222, 228",MS JESSIE LIM CHIEN CHIN,MS ANGELA GOH BEE LIAN,MDM ESTHER E TZY KWEI,,,,,BEDOK,EAST,GOVERNMENT-AIDED SCH,CO-ED SCHOOL,SINGLE SESSION,PRIMARY,Yes,No,No,No,Chinese,na,na,1.3336412,103.9346186
MARIS STELLA HIGH SCHOOL,http://www.marisstellahigh.moe.edu.sg,25   MOUNT VERNON ROAD,368051,62803880 (Sec),62827743 (Pri),62886905 (Sec),62827905 (Pri),msh@moe.edu.sg,BARTLEY MRT,"28, 93, 129, 158",MRS WOO SOO MIN,MRS MARIA KOH,MR LIM KAY WAH BENEDICT,MR TAN CHING HUAT,MR TAN KIM KOON,,,TOA PAYOH,NORTH,GOVERNMENT-AIDED SCH,BOYS' SCHOOL,SINGLE SESSION,MIXED LEVELS,Yes,Yes,No,No,Chinese,na,na,1.34203865,103.8783276
RULANG PRIMARY SCHOOL,http://www.rulangpri.moe.edu.sg/,6    JURONG WEST STREET 52,649295,65657771,na,65632382,na,RULANG_PS@MOE.EDU.SG,Lakeside,SBS 335,MS TRACY TAN I- LIAN,MISS NG MEI YUN,DR CHOONG PEK LAN,,,,,JURONG WEST,WEST,GOVERNMENT SCHOOL,CO-ED SCHOOL,DOUBLE SESSION,PRIMARY,No,No,No,No,Chinese,Malay,Tamil,1.34660905,103.718737
PEI CHUN PUBLIC SCHOOL,http://www.peichunpublic.moe.edu.sg,16   LORONG 7 TOA PAYOH,319320,63539450,na,63538418,na,PCPS@MOE.EDU.SG,Toa Payoh MRT Station and Braddell MRT Station,"Bus Service 232, 57",MR LIM MENG WEI,MISS ADELINE LEONG QINGHUA,MISS SNG WAN XIAN,,,,,TOA PAYOH,SOUTH,GOVERNMENT-AIDED SCH,CO-ED SCHOOL,SINGLE SESSION,PRIMARY,Yes,No,No,No,Chinese,na,na,1.3370857,103.8556799
SINGAPORE CHINESE GIRLS' PRIMARY SCHOOL,www.scgs.moe.edu.sg,190  DUNEARN ROAD,309437,62527966,na,62523076,na,SCGPS@MOE.EDU.SG,Stevens,"66, 67, 105, 132, 151, 153, 154, 156, 170, 171, 186, 190, 605, 700, 960",MDM TAN YUNCHIN EUGENIA,MDM PHUA KIA LING,,,,,,NOVENA,NORTH,GOVERNMENT-AIDED SCH,GIRLS' SCHOOL,SINGLE SESSION,PRIMARY,No,No,No,No,Chinese,Malay,Tamil,1.3210897,103.8278673
METHODIST GIRLS' SCHOOL (PRIMARY),http://www.mgs.sch.edu.sg,11   Blackmore Drive,599986,64694800,na,64624166,na,mgps@moe.edu.sg,King Albert Park MRT,"66, 67, 74, 77, 151, 154, 157, 170, 171, 174, 852, 961, 970",NG WUN HAR GRACE,MISS LIM JING WEN KAREN,MISS HANNAH CHIA CUI'E,,,,,BUKIT TIMAH,WEST,GOVERNMENT-AIDED SCH,GIRLS' SCHOOL,SINGLE SESSION,PRIMARY,No,No,No,No,Chinese,Malay,Tamil,1.33284035,103.7835765
HONG WEN SCHOOL,http://www.hongwen.moe.edu.sg,30   TOWNER ROAD,327829,62943340,na,62937625,na,hws@moe.edu.sg,Boon Keng MRT,"Serangoon Road: 13, 23, 31, 64, 65, 66, 125, 133, 147, 857, 985 Balestier Road: 21, 125, 130, 139, 145",MRS THERESA HONG-NG,MR LIM CHONG ENG,,,,,,KALLANG,SOUTH,GOVERNMENT-AIDED SCH,CO-ED SCHOOL,SINGLE SESSION,PRIMARY,Yes,No,No,No,Chinese,na,na,1.32178305,103.8575269
MAHA BODHI SCHOOL,http://www.mahabodhi.moe.edu.sg/,10   UBI AVENUE 1,408931,67442115,na,67443752,na,MBS@MOE.EDU.SG,"Eunos Station (Transfer Bus No.63, 63M) Ubi Station (Transfer Bus No. 137)","5,8,15,22,25,45,51,55,59,61,63,63M,65,66,93,94,854",MRS ELAINE QUEK-LIM HWEE BIN,MR LIM KIM MIN (LIN JINMIN),MDM WANG MING HWEE,,,,,GEYLANG,EAST,GOVERNMENT-AIDED SCH,CO-ED SCHOOL,SINGLE SESSION,PRIMARY,Yes,No,No,No,Chinese,na,na,1.3284777,103.9015345
ANGLO-CHINESE SCHOOL (JUNIOR),www.acsj.moe.edu.sg,16   WINSTEDT ROAD,227988,67337911,67337912,67346518,na,acjs@moe.edu.sg,Newton MRT Station,"5, 54, 124, 143, 162, 162M, 167, 167e, 518, 518A, 972M",MRS CHAILLAN MUI TUAN,MR CHIA CHEE WENG RICHARD CHRIS,,,,,,CENTRAL,SOUTH,GOVERNMENT-AIDED SCH,BOYS' SCHOOL,SINGLE SESSION,PRIMARY,No,No,No,No,Chinese,Malay,Tamil,1.30928255,103.8413025
FAIRFIELD METHODIST SCHOOL (PRIMARY),http://www.fmsp.moe.edu.sg/,100  DOVER ROAD,139648,67788431,na,67762948,na,fmsp@moe.edu.sg,"One-North MRT, Buona Vista MRT & Dover MRT","SBS Bus 14,33,74,166 & 196",MDM LAW LI MEI,MDM QUEK TSUI LAN PRISCA,,,,,,QUEENSTOWN,SOUTH,GOVERNMENT-AIDED SCH,CO-ED SCHOOL,SINGLE SESSION,PRIMARY,No,No,No,No,Chinese,Malay,Tamil,1.30081995,103.785649
PAYA LEBAR METHODIST GIRLS' SCHOOL (PRIMARY),http://www.payalebarmethodistgirlspri.moe.edu.sg/,298  LORONG AH SOO,536741,62862795,na,62803915,na,PLMGPS@MOE.EDU.SG,"Kovan (NE13), Serangoon(NE12/CC13)","45, 53, 53M, 62, 113",MRS JOYCE ANG,MS GRACE TAY MENG HON,,,,,,HOUGANG,EAST,GOVERNMENT-AIDED SCH,GIRLS' SCHOOL,SINGLE SESSION,PRIMARY,No,No,No,No,Chinese,Malay,Tamil,1.34993195,103.8849238
RADIN MAS PRIMARY SCHOOL,http://www.radinmasps.moe.edu.sg,1    BUKIT PURMEI AVENUE,99840,62733937,na,62763083,na,rmps@moe.edu.sg,Tiong Bahru MRT HarbourFront MRT,"SBS 123, 131, 275 SBS 65",MR MUHAMMAD FARIZAL BIN UMAR EFFE,MRS LINDA TAN,,,,,,BUKIT MERAH,SOUTH,GOVERNMENT SCHOOL,CO-ED SCHOOL,SINGLE SESSION,PRIMARY,No,No,No,No,Chinese,Malay,Tamil,1.2750442,103.8240239
SOUTH VIEW PRIMARY SCHOOL,http://www.southviewpri.moe.edu.sg,6    Choa Chu Kang Central,689762,67697176,na,67631091,na,SVPS@MOE.EDU.SG,Choa Chu Kang MRT Station,307 / South View LRT Station,MDM SHARIDA BINTE BATCHA SAHIB,MISS TAN WAN KHENG,MISS ACHARY GOPALAN SHIYAMALA,,,,,CHOA CHU KANG,WEST,GOVERNMENT SCHOOL,CO-ED SCHOOL,SINGLE SESSION,PRIMARY,No,No,No,No,Chinese,Malay,Tamil,1.38167325,103.7468218
CHONGFU SCHOOL,http://www.chongfu.moe.edu.sg/,170  YISHUN AVENUE 6,768959,67585527,na,62579571,na,CFS@MOE.EDU.SG,Yishun MRT station,Feeder Service 811,MDM FOO MUI CHUW,MR SOON WOO SIN,MISS LIM HWEE MIEN ANGELYNNA,,,,,YISHUN,NORTH,GOVERNMENT-AIDED SCH,CO-ED SCHOOL,SINGLE SESSION,PRIMARY,No,No,No,No,Chinese,Malay,Tamil,1.4387276,103.8392901
ST. MARGARET'S PRIMARY SCHOOL,na,2    Mattar Road,387724,na,na,na,na,na,Mattar MRT Station (DT25),"40, 61, 63, 65, 66, 135, 154, 155, 158",MRS KO-TAN LI LING,MDM ALISON ANG SIOK PHING,,,,,,CENTRAL,SOUTH,GOVERNMENT-AIDED SCH,GIRLS' SCHOOL,SINGLE SESSION,PRIMARY,No,No,No,No,Chinese,Malay,Tamil,1.30438115,103.8459288
