school_name,url_address,address,postal_code,telephone_no,telephone_no_2,fax_no,fax_no_2,email_address,mrt_desc,bus_desc,principal_name,first_vp_name,second_vp_name,third_vp_name,fourth_vp_name,fifth_vp_name,sixth_vp_name,dgp_code,zone_code,type_code,nature_code,session_code,mainlevel_code,sap_ind,autonomous_ind,gifted_ind,ip_ind,mothertongue1_code,mothertongue2_code,mothertongue3_code,latitude,longitude
ADMIRALTY PRIMARY SCHOOL,https://admiraltypri.moe.edu.sg/,11   WOODLANDS CIRCLE,738907,63620598,na,63627512,na,ADMIRALTY_PS@MOE.EDU.SG,Admiralty Station,"TIBS 965, 964, 913",MR PEK WEE HAUR,MDM CHUA MUI LING,MDM NUR SABARIAH BTE MOHD IBRAHIM,,,,,WOODLANDS,NORTH,GOVERNMENT SCHOOL,CO-ED SCHOOL,FULL DAY,PRIMARY,No,No,No,No,Chinese,Malay,Tamil,1.4429414,103.8003451
AHMAD IBRAHIM PRIMARY SCHOOL,http://www.ahmadibrahimpri.moe.edu.sg,10   YISHUN STREET 11,768643,67592906,na,67592927,na,aips@moe.edu.sg,Yishun,"Yishun Ring Road - 812 (white plate); Yishun Ave 2 - 169, 804, 965, 117, 883",MISS ONG LEE CHOO,MADAM SULASNI BINTE ABDUL RAHMAN,,,,,,YISHUN,NORTH,GOVERNMENT SCHOOL,CO-ED SCHOOL,SINGLE SESSION,PRIMARY,No,No,No,No,Chinese,Malay,Tamil,1.4338487,103.8327098
AI TONG SCHOOL,http://www.aitong.moe.edu.sg,100  Bright Hill Drive,579646,64547672,na,64532726,na,AITONG_SCH@MOE.EDU.SG,Bishan MRT,"410, 162, 52",MDM GOH LING LING DIANE,"MDM NG BEE ENG, CINDY",MR YAK BENG WEI,,,,,BISHAN,SOUTH,GOVERNMENT-AIDED SCH,CO-ED SCHOOL,SINGLE SESSION,PRIMARY,Yes,No,No,No,Chinese,na,na,1.36071255,103.8330175
ALEXANDRA PRIMARY SCHOOL,http://alexandrapri.moe.edu.sg,2A   Prince Charles Crescent,159016,62485400,na,62485409,na,alexandra_ps@moe.edu.sg,Redhill Station  Tiong Bahru Station,"51, 122, 139, 186, 970.",MDM TEO CHING LING,MDM NORAINI BTE MANSOOR,,,,,,BUKIT MERAH,SOUTH,GOVERNMENT SCHOOL,CO-ED SCHOOL,SINGLE SESSION,PRIMARY,No,No,No,No,Chinese,Malay,Tamil,1.2912837,103.8240659
ANCHOR GREEN PRIMARY SCHOOL,http://www.anchorgreenpri.moe.edu.sg,31   Anchorvale Drive,544969,68861356,na,63159825,na,anchorgreen_ps@moe.edu.sg,MRT : NE16-Sengkang LRT : SW7-TongKang,"Bus 372, 110, 50",MDM NORLIZA BTE A RAHIM,MDM VASUNDHARA  REDDY,MDM NEO LAY PIN,,,,,SENG KANG,NORTH,GOVERNMENT SCHOOL,CO-ED SCHOOL,SINGLE SESSION,PRIMARY,No,No,No,No,Chinese,Malay,Tamil,1.3903798,103.8873538
ANDERSON PRIMARY SCHOOL,http://www.andersonpri.moe.edu.sg,19   ANG MO KIO AVE 9,569785,64560340,na,65522310,na,anderson_ps@moe.edu.sg,Yio Chu Kang MRT Station,"Ang Mo Kio Ave 9 - Bus 76, 265, 268",MDM DELIA HOO,"MDM NGOH YING LI, JANE",,,,,,ANG MO KIO,NORTH,GOVERNMENT SCHOOL,CO-ED SCHOOL,SINGLE SESSION,PRIMARY,No,No,No,No,Chinese,Malay,Tamil,1.37631785,103.8355619
ANG MO KIO PRIMARY SCHOOL,http://www.angmokiopri.moe.edu.sg,20   ANG MO KIO AVENUE 3,569920,64520794,na,64588121,na,AMKPS@MOE.EDU.SG,Ang Mo Kio MRT Station,"76,132,165,166,169,200,000,000",MRS LIM BEE LAY,MR KYAW SAW LYNN,MDM TAN SIEW KHIM (CHEN XIUQIN),,,,,ANG MO KIO,SOUTH,GOVERNMENT SCHOOL,CO-ED SCHOOL,SINGLE SESSION,PRIMARY,No,No,No,No,Chinese,Malay,Tamil,1.3691002,103.8393602
ANGLO-CHINESE SCHOOL (JUNIOR),www.acsj.moe.edu.sg,16   WINSTEDT ROAD,227988,67337911,67337912,67346518,na,acjs@moe.edu.sg,Newton MRT Station,"5, 54, 124, 143, 162, 162M, 167, 167e, 518, 518A, 972M",MRS CHAILLAN MUI TUAN,MR CHIA CHEE WENG RICHARD CHRIS,,,,,,CENTRAL,SOUTH,GOVERNMENT-AIDED SCH,BOYS' SCHOOL,SINGLE SESSION,PRIMARY,No,No,No,No,Chinese,Malay,Tamil,1.30928255,103.8413025
ANGLO-CHINESE SCHOOL (PRIMARY),http://www.acspri.moe.edu.sg/,50   BARKER ROAD,309918,62501633,na,63531366,na,acps@moe.edu.sg,Newton MRT Station,"Bus 48, 66, 67, 170, 603, 972M",DR NG SIEW PENG IRENE,MDM CHOH THIAN JENG CELIA,MR CHUA THIAN KEONG,,,,,NOVENA,SOUTH,GOVERNMENT-AIDED SCH,BOYS' SCHOOL,SINGLE SESSION,PRIMARY,No,No,Yes,No,Chinese,Malay,Tamil,1.31875235,103.8350769
ANGSANA PRIMARY SCHOOL,www.angsanapri.moe.edu.sg,3    Tampines Street 22,529366,67830427,na,67845293,na,angsana_pri@moe.edu.sg,Tampines and Simei Stations,"Bus Service 8, 17, 18, 20, 28, 34, 39, 59, 518, Feeder Bus Service 292",MISS FOONG YIN WEI,MR BHIMBAHADUR GURUNG,,,,,,TAMPINES,EAST,GOVERNMENT SCHOOL,CO-ED SCHOOL,SINGLE SESSION,PRIMARY,No,No,No,No,Chinese,Malay,Tamil,1.3635823,103.9389129
BEACON PRIMARY SCHOOL,https://beaconpri.moe.edu.sg/,36   Bukit Panjang Ring Road,679944,67697255,na,67697244,na,beaconprisch@moe.edu.sg,"Bangkit LRT, Fajar LRT Station","920, 922, 971, 972, 972A, 972M, 976",MISS PANG WEE MIAN,MR ONG HONG GHEE,MDM LELA BTE SHAMSUHADI,,,,,BUKIT PANJANG,WEST,GOVERNMENT SCHOOL,CO-ED SCHOOL,SINGLE SESSION,PRIMARY,No,No,No,No,Chinese,Malay,Tamil,1.38411495,103.7738056
BEDOK GREEN PRIMARY SCHOOL,http://www.bedokgreenpri.moe.edu.sg,1    BEDOK SOUTH AVE 2,469317,64425416,na,64491491,na,bgps@moe.edu.sg,"Bedok MRT Station, Tanah Merah MRT Station","Bus No. 2, 9, 12, 24, 31, 34 & 38",MR YONG YIK YEN BENJAMIN,MDM SHARIFAH FAIRUZ BTE S Y A,MR YEO SHO HOR,,,,,BEDOK,EAST,GOVERNMENT SCHOOL,CO-ED SCHOOL,SINGLE SESSION,PRIMARY,No,No,No,No,Chinese,Malay,Tamil,1.3240565,103.9378306
BENDEMEER PRIMARY SCHOOL,http://www.bendemeerpri.moe.edu.sg/,91   BENDEMEER ROAD,339948,62982911,na,62995735,na,BENDEMEER_PS@MOE.EDU.SG,"Boon Keng, Kallang","13 23 31 61 64 65 65M 66 125, 125X ,133,140,147,853,857,985",MDM LIM KIM GEK,MRS SANTHI RAVINDRAN,,,,,,KALLANG,SOUTH,GOVERNMENT SCHOOL,CO-ED SCHOOL,SINGLE SESSION,PRIMARY,No,No,No,No,Chinese,Malay,Tamil,1.3223157,103.8650741
BLANGAH RISE PRIMARY SCHOOL,http://www.blangahrisepri.moe.edu.sg/,91   TELOK BLANGAH HEIGHTS,109100,62717387,na,62763037,na,BRPS@MOE.EDU.SG,"Telok Blangah, Tiong Bahru & Redhill",SBS 273 & 124,MR FRANCIS FOO,MDM ONG AI SIAN,MRS LEONG-HO HIL MAY,,,,,BUKIT MERAH,SOUTH,GOVERNMENT SCHOOL,CO-ED SCHOOL,SINGLE SESSION,PRIMARY,No,No,No,No,Chinese,Malay,Tamil,1.27640575,103.80881
BOON LAY GARDEN PRIMARY SCHOOL,www.boonlaygardenpri.moe.edu.sg,20   BOON LAY DRIVE,649930,63160998,na,63160209,na,BLGPS@MOE.EDU.SG,Lakeside & Boon Lay,"30,99,154,178,180,187,240,246",MDM CHRISTINE LIM MIN HUI,MDM HOONG WHEE SIEN,,,,,,JURONG WEST,WEST,GOVERNMENT SCHOOL,CO-ED SCHOOL,SINGLE SESSION,PRIMARY,No,No,No,No,Chinese,Malay,Tamil,1.3428882,103.7129331
BUKIT PANJANG PRIMARY SCHOOL,http://www.bukitpanjangpri.moe.edu.sg,109  CASHEW ROAD,679676,67691912,na,67637462,na,BPPS@MOE.EDU.SG,From Pending LRT station to Choa Chu Kang MRT station,"75, 184",MR BUCKTHA SEELAN,MDM KAY HWEE GEAK,,,,,,BUKIT PANJANG,WEST,GOVERNMENT SCHOOL,CO-ED SCHOOL,SINGLE SESSION,PRIMARY,No,No,No,No,Chinese,Malay,Tamil,1.37341685,103.7694292
BUKIT TIMAH PRIMARY SCHOOL,http://www.bukittimahpri.moe.edu.sg,111  Lorong Kismis,598112,64662863,na,64692179,na,bukittimahps@moe.edu.sg,"Beauty World, Bukit Batok and Clementi Stations",173,MDM LEN LENG LENG TERESA KELLY,MR WONG SUNG LAI,MDM KITHA D/O ARUMUGAM,,,,,BUKIT TIMAH,WEST,GOVERNMENT SCHOOL,CO-ED SCHOOL,SINGLE SESSION,PRIMARY,No,No,No,No,Chinese,Malay,Tamil,1.33751905,103.7668494
BUKIT VIEW PRIMARY SCHOOL,http://www.bukitviewpri.moe.edu.sg,18   BUKIT BATOK STREET 21,659634,65661980,na,65635015,na,bukitview_ps@moe.edu.sg,Bukit Batok MRT Station,"173,157,178,852,66,106,61,506,963,77",MDM KOH YUEN CHOO,MDM TEO ENG HUI,,,,,,BUKIT BATOK,WEST,GOVERNMENT SCHOOL,CO-ED SCHOOL,SINGLE SESSION,PRIMARY,No,No,No,No,Chinese,Malay,Tamil,1.34570095,103.7535185
CANBERRA PRIMARY SCHOOL,http://www.canberrapri.moe.edu.sg,21   ADMIRALTY DRIVE,757714,67597433,na,67587312,na,CANBERRA_PS@MOE.EDU.SG,Sembawang MRT Station,Bus No. 859,MR WONG POO MUN,MS HO STEPHANIE LOUISE,MR SHAH JAHAN B MOHAMED IQBAL,,,,,SEMBAWANG,NORTH,GOVERNMENT SCHOOL,CO-ED SCHOOL,SINGLE SESSION,PRIMARY,No,No,No,No,Chinese,Malay,Tamil,1.45085035,103.8155937
CANOSSA CATHOLIC PRIMARY SCHOOL,https://canossacatholicpri.moe.edu.sg/,1    Sallim Road,387621,68441418,na,68441417,na,ccps@moe.edu.sg,Nearest MRT station: Mattar Station (about 7-minute walk),"Aljunied Road (same side as CCPS): 62, 64, 100    Aljunied Road (opposite CCPS): 61, 62, 64, 66, 100, 135, 154, 155    Merpati Rd (after Jln Anggerek): 40, 61, 63, 65, 66, 135,",MDM SIA LU-MING EUGENIE,MR LEE KOK MENG CLEMENT,,,,,,GEYLANG,EAST,GOVERNMENT-AIDED SCH,CO-ED SCHOOL,SINGLE SESSION,PRIMARY,No,No,No,No,Chinese,Malay,Tamil,1.3266014,103.8810504
CANTONMENT PRIMARY SCHOOL,http://www.cantonmentpri.moe.edu.sg,1    Cantonment Close,88256,65119555,na,65119556,na,cantonment_ps@moe.edu.sg,Tanjong Pagar Outram Park,"75, 167, 196",MRS MANOKARA SUGUNAVATHI,MRS AUDREA CHIN,MISS CHENG SHIN MIIN,,,,,BUKIT MERAH,SOUTH,GOVERNMENT SCHOOL,CO-ED SCHOOL,SINGLE SESSION,PRIMARY,No,No,No,No,Chinese,Malay,Tamil,1.2758142,103.8398884
CASUARINA PRIMARY SCHOOL,http://www.casuarinapri.moe.edu.sg/,30   PASIR RIS ST 41,518935,65837132,na,65836227,na,CASUARINA_PS@MOE.EDU.SG,Pasir Ris MRT Station,"Nos. 12, 21 & 358",MDM ONG KWEE LAN,MR WONG JUNFU STEVEN,MR TAYEB B RAJIB,,,,,PASIR RIS,EAST,GOVERNMENT SCHOOL,CO-ED SCHOOL,SINGLE SESSION,PRIMARY,No,No,No,No,Chinese,Malay,Tamil,1.3728079,103.9572279
CEDAR PRIMARY SCHOOL,Http://www.cedarpri.moe.edu.sg,15   CEDAR AVENUE,349700,62885633,na,62830113,na,CEDAR_PS@MOE.EDU.SG,Potong Pasir MRT Station,"8, 61, 64, 65, 66, 66A, 90, 90A, 100, 135, 151, 154, 155",MR CHRIS CHUA,MS CHOONG PEI CHIN,MDM NUR RASHIDAH BTE ABDUL RASHID,,,,,TOA PAYOH,SOUTH,GOVERNMENT SCHOOL,CO-ED SCHOOL,SINGLE SESSION,PRIMARY,No,No,No,No,Chinese,Malay,Tamil,1.33553125,103.8754848
CHANGKAT PRIMARY SCHOOL,http://www.changkatpri.moe.edu.sg/,11   SIMEI ST 3,529896,67830923,na,67844740,na,CHANGKAT_PS@MOE.EDU.SG,Simei MRT Station,"9,38,5",MDM CHENG HUEY TENG,MDM SITI NAZRAH BTE ABDUL RAHMAN,,,,,,TAMPINES,EAST,GOVERNMENT SCHOOL,CO-ED SCHOOL,SINGLE SESSION,PRIMARY,No,No,No,No,Chinese,Malay,Tamil,1.33982335,103.9522753
CHIJ (KATONG) PRIMARY,http://chijkcp.moe.edu.sg/,17   MARTIA ROAD,424821,63443072,na,63459007,na,CHIJKTPS@moe.edu.sg,EUNOS PAYA LEBAR,"15, 55, 36, 16, 135, 197, 196, 31, 13, 76, 12, 10, 14, 32, 40",MDM CHUA SOOK LIAN JUDINA,MDM TAN POH KUAN JOYCELYN,,,,,,BEDOK,EAST,GOVERNMENT-AIDED SCH,GIRLS' SCHOOL,SINGLE SESSION,PRIMARY,No,No,No,No,Chinese,Malay,Tamil,1.30643785,103.910832
CHIJ (KELLOCK),http://www.chijkellock.moe.edu.sg/,1    Bukit Teresa Road,99757,62730096,na,62731710,na,CHIJKS@MOE.EDU.SG,Outram Park Station,"61, 124, 143, 166",MRS SHANTHI SURAJ NAIR,MS NG CHIOU HIEN HELEN,MRS CHAN-TIONG LE CHIN,,,,,BUKIT MERAH,SOUTH,GOVERNMENT-AIDED SCH,GIRLS' SCHOOL,SINGLE SESSION,PRIMARY,No,No,No,No,Chinese,Malay,Tamil,1.274664,103.8280551
CHIJ OUR LADY OF GOOD COUNSEL,http://www.chijourladyofgoodcounsel.moe.edu.sg,2C   Burghley Drive,558979,62886930,na,62814132,na,chijolgcs@moe.edu.sg,"Ang Mo Kio MRT, Bishan MRT, Serangoon MRT station.","317 Feeder Bus Service from Serangoon Interchange. 135,136 from Ang Mo Kio Interchange.",MISS TAN LEE YIN GRACE,MRS WONG-LIM ENG LING ANGELINA,MISS LIAT MEI KUEN GERALDINE SHARON,,,,,SERANGOON,SOUTH,GOVERNMENT-AIDED SCH,GIRLS' SCHOOL,SINGLE SESSION,PRIMARY,No,No,No,No,Chinese,Malay,Tamil,1.3577786,103.8639303
CHIJ OUR LADY OF THE NATIVITY,http://www.chijourladyofthenativity.moe.edu.sg/,1257 UPPER SERANGOON ROAD,534793,63852455,na,63852012,na,chijoln@moe.edu.sg,Hougang MRT,"74, 102, 112, 113, 119, 136, 147, 324, 672",MDM CHRISTINA TEO,MDM YEO DAI YUN,MDM LIM HUI MEOW ANNIE,,,,,HOUGANG,SOUTH,GOVERNMENT-AIDED SCH,GIRLS' SCHOOL,SINGLE SESSION,PRIMARY,No,No,No,No,Chinese,Malay,Tamil,1.37311065,103.8976899
CHIJ OUR LADY QUEEN OF PEACE,http://www.chijourladyqueenofpeace.moe.edu.sg/,4    Chestnut Drive,679287,67691529,na,67653551,na,CHIJOLQP@MOE.EDU.SG,Cashew and Hillview,"180, 67, 171, 176, 177, 178, 184, 961, 963, 970",MS ALBUQUERQUE KAREN ANNE,MISS CECILIA TAN LI HUA,MDM LOH AH LAH CATHERINE MICHELLE,,,,,BUKIT PANJANG,WEST,GOVERNMENT-AIDED SCH,GIRLS' SCHOOL,SINGLE SESSION,PRIMARY,No,No,No,No,Chinese,Malay,Tamil,1.36644755,103.7681471
CHIJ PRIMARY (TOA PAYOH),http://www.chijpritoapayoh.moe.edu.sg,628  Lorong 1 Toa Payoh,319765,63532164,na,63536362,na,CHIJTPPS@MOE.EDU.SG,Toa Payoh,"59, 231, 141",DR TAN SOON KEE MARGARET,MDM MISCHA LEIGH PEREIRA,MRS CHARMAINE LEE,,,,,TOA PAYOH,SOUTH,GOVERNMENT-AIDED SCH,GIRLS' SCHOOL,SINGLE SESSION,PRIMARY,No,No,No,No,Chinese,Malay,Tamil,1.3331269,103.842403
CHONGFU SCHOOL,http://www.chongfu.moe.edu.sg/,170  YISHUN AVENUE 6,768959,67585527,na,62579571,na,CFS@MOE.EDU.SG,Yishun MRT station,Feeder Service 811,MDM FOO MUI CHUW,MR SOON WOO SIN,MISS LIM HWEE MIEN ANGELYNNA,,,,,YISHUN,NORTH,GOVERNMENT-AIDED SCH,CO-ED SCHOOL,SINGLE SESSION,PRIMARY,No,No,No,No,Chinese,Malay,Tamil,1.4387276,103.8392901
CHONGZHENG PRIMARY SCHOOL,http://www.chongzhengpri.moe.edu.sg,1    TAMPINES STREET 21,529392,67819002,na,67845054,na,czps@moe.edu.sg,Tampines MRT Station,"3,3A, 8, 17, 18, 20, 28, 34, 39, 59, 518",MR LIM WEE JAMES,MDM RANJIT KAUR D/O MUKHTAR SINGH,,,,,,TAMPINES,EAST,GOVERNMENT SCHOOL,CO-ED SCHOOL,SINGLE SESSION,PRIMARY,No,No,No,No,Chinese,Malay,Tamil,1.35054425,103.9509206
CHUA CHU KANG PRIMARY SCHOOL,http://www.chuachukangpri.moe.edu.sg,20   CHOA CHU KANG AVENUE 2,689905,67661574,na,67661583,na,cckps@moe.edu.sg,Choa Chu Kang MRT Station and Southview LRT Station,"Bus Service 300, 301 and NR3 along Chua Chu Kang Ave 2 Bus Service 172, 301, 991 along Chua Chu Kang Ave 1",MDM KUEK YEN YEN SHEREE,MDM CHEW BOON HWEE,,,,,,CHOA CHU KANG,WEST,GOVERNMENT SCHOOL,CO-ED SCHOOL,SINGLE SESSION,PRIMARY,No,No,No,No,Chinese,Malay,Tamil,1.37793775,103.7419841
CLEMENTI PRIMARY SCHOOL,http://www.clementipri.moe.edu.sg,8    CLEMENTI AVE 3,129903,67797449,na,67732898,na,admin_clementi_ps@moe.edu.sg,Clementi MRT Station,We are just beside Clementi Bus Interchange.,MR VIMALENTHIRAN S/O VIJAYASINGAM,MRS TAN SIEW HONG,,,,,,CLEMENTI,WEST,GOVERNMENT SCHOOL,CO-ED SCHOOL,SINGLE SESSION,PRIMARY,No,No,No,No,Chinese,Malay,Tamil,1.31556955,103.7632088
COMPASSVALE PRIMARY SCHOOL,http://www.compassvalepri.moe.edu.sg/,21   COMPASSVALE ST,545091,63882819,na,63882798,na,cvps@moe.edu.sg,Sengkang,"83 (along Compassvale Street) 27, 89, 89E & 965 (along Compassvale Road).",MR JEFFREY AW,MDM YEOW CHERN EE,,,,,,SENG KANG,NORTH,GOVERNMENT SCHOOL,CO-ED SCHOOL,SINGLE SESSION,PRIMARY,No,No,No,No,Chinese,Malay,Tamil,1.3945064,103.8980351
CONCORD PRIMARY SCHOOL,http://www.concordpri.moe.edu.sg/,3    CHOA CHU KANG AVE 4,689814,67632139,na,67632452,na,CONCORD_PS@MOE.EDU.SG,Choa Chu Kang MRT Station,Bus 300 and 983,MR TAN SIEW TIONG,MS LIM KAR WAE FIONA,MDM GOH PUAY HOON JENNY,,,,,CHOA CHU KANG,WEST,GOVERNMENT SCHOOL,CO-ED SCHOOL,SINGLE SESSION,PRIMARY,No,No,No,No,Chinese,Malay,Tamil,1.38021795,103.7363327
CORPORATION PRIMARY SCHOOL,http://www.corporationpri.moe.edu.sg,31   JURONG WEST STREET 24,648347,67957381,na,67957098,na,cps@moe.edu.sg,BOON LAY STATION LAKESIDE STATION,"157 (from Boon Lay Interchange), or 185",MRS JENNIFER PANG CHEE CHYN,MDM POON GEK HONG,MRS CHRISTINA TAN-LIM LAY LENG,,,,,JURONG WEST,WEST,GOVERNMENT SCHOOL,CO-ED SCHOOL,SINGLE SESSION,PRIMARY,No,No,No,No,Chinese,Malay,Tamil,1.35142845,103.7076954
DAMAI PRIMARY SCHOOL,http://www.damaipri.moe.edu.sg,52   BEDOK RESERVOIR CRESCENT,479226,64456483,na,64499681,na,DAMAI_PS@MOE.EDU.SG,Bedok North MRT Station,"Bus 228,66,65,22,21,5 and 506",MRS LEONG- TAN LING LING JENNY,MDM LIM PECK CHIN YENLYN,,,,,,BEDOK,EAST,GOVERNMENT SCHOOL,CO-ED SCHOOL,SINGLE SESSION,PRIMARY,No,No,No,No,Chinese,Malay,Tamil,1.3354514,103.9213901
DAZHONG PRIMARY SCHOOL,http://www.dazhongpri.moe.edu.sg,35   BUKIT BATOK STREET 31,659441,65658002,na,65636421,na,dazhong_ps@moe.edu.sg,Bukit Gombak,"187, 188",MDM YAP SIU LIN,MR PHANG TECK HOW,MRS BOEY- LIM SEOW KHIM,,,,,BUKIT BATOK,WEST,GOVERNMENT SCHOOL,CO-ED SCHOOL,SINGLE SESSION,PRIMARY,No,No,No,No,Chinese,Malay,Tamil,1.3591826,103.7479679
DE LA SALLE SCHOOL,http://www.delasalle.moe.edu.sg,11   Choa Chu Kang St 52,689285,67667675,na,67622075,na,dlss@moe.edu.sg,YEW TEE MRT,"TIBS 302, 979",MDM CHERYL CHOO SHUEH-LI,MR CHING KIN HIN,,,,,,CHOA CHU KANG,WEST,GOVERNMENT-AIDED SCH,CO-ED SCHOOL,SINGLE SESSION,PRIMARY,No,No,No,No,Chinese,Malay,Tamil,1.3950086,103.7432593
EAST SPRING PRIMARY SCHOOL,http://www.eastspringpri.moe.edu.sg,31   TAMPINES ST 33,529258,67866192,na,67866649,na,esps@moe.edu.sg,Tampines,"291, 28,18",MR WONG KIN MUN,MRS LEE-GOH SIEW LING MARIA,,,,,,TAMPINES,EAST,GOVERNMENT SCHOOL,CO-ED SCHOOL,SINGLE SESSION,PRIMARY,No,No,No,No,Chinese,Malay,Tamil,1.3528815,103.9619173
EDGEFIELD PRIMARY SCHOOL,http://www.edgefieldpri.moe.edu.sg,41   EDGEFIELD PLAINS,828869,63126091,na,63126093,na,edgefield_ps@moe.edu.sg,Punggol MRT,"3, 34, 62, 82, 83, 136",MR MICHEL SAW MUN SEONG,MR LOW KAH HENG THOMAS,MDM FAZILAH MARICAR D/O MD ALI M,,,,,PUNGGOL,NORTH,GOVERNMENT SCHOOL,CO-ED SCHOOL,SINGLE SESSION,PRIMARY,No,No,No,No,Chinese,Malay,Tamil,1.40035045,103.9075274
ELIAS PARK PRIMARY SCHOOL,http://www.eliasparkpri.moe.edu.sg,11   PASIR RIS STREET 52,518866,65844393,na,65844392,na,epps@moe.edu.sg,Pasir Ris MRT,"3, 15, 39, 53, 81, 88, 89, 357, 403, 518",MDM CHUA PEI PEI,MRS ESTHER SEE-LING SZENGEN,MR MOHAMAD NOOR BIN ABDUL MANAF @,,,,,PASIR RIS,EAST,GOVERNMENT SCHOOL,CO-ED SCHOOL,SINGLE SESSION,PRIMARY,No,No,No,No,Chinese,Malay,Tamil,1.37491195,103.9451758
ENDEAVOUR PRIMARY SCHOOL,https://endeavourpri.moe.edu.sg/,10   Admiralty Link,757521,64824650,64824835,64824670,na,endeavour_ps@moe.edu.sg,Sembawang MRT Station,"859, 962",MR KOH KIAN SENG THOMAS,MR RAZALI B SENIN,MDM CHUA HUI PIN,,,,,SEMBAWANG,NORTH,GOVERNMENT SCHOOL,CO-ED SCHOOL,SINGLE SESSION,PRIMARY,No,No,No,No,Chinese,Malay,na,1.45442995,103.8175792
EUNOS PRIMARY SCHOOL,http://www.eunospri.moe.edu.sg/,95   JALAN EUNOS,419529,67463336,na,67488554,na,eunos_ps@moe.edu.sg,Nearest MRT Station - Eunos,"Bus Services (SBS): 15, 21, 25, 51, 55, 63, 93, 94, 60 Bus Services (SMRT) : 61, 854, 966",MDM PHUA YIN LIN GRACE,MDM TAN KIM YAN,,,,,,GEYLANG,EAST,GOVERNMENT SCHOOL,CO-ED SCHOOL,SINGLE SESSION,PRIMARY,No,No,No,No,Chinese,Malay,Tamil,1.32481685,103.9043661
EVERGREEN PRIMARY SCHOOL,http://www.evergreenpri.moe.edu.sg/,31   WOODLANDS CIRCLE,738908,63687705,na,63688084,na,EVERGREEN_PS@MOE.EDU.SG,Admiralty,"913(front), 911 & 858(back)",MDM RABIATHUL BAZRIYA D/O ABU BAKAR,MDM YEO SIAU YEN,MRS PETRINA KOH,,,,,WOODLANDS,NORTH,GOVERNMENT SCHOOL,CO-ED SCHOOL,SINGLE SESSION,PRIMARY,No,No,No,No,Chinese,Malay,Tamil,1.44383025,103.7947361
FAIRFIELD METHODIST SCHOOL (PRIMARY),http://www.fmsp.moe.edu.sg/,100  DOVER ROAD,139648,67788431,na,67762948,na,fmsp@moe.edu.sg,"One-North MRT, Buona Vista MRT & Dover MRT","SBS Bus 14,33,74,166 & 196",MDM LAW LI MEI,MDM QUEK TSUI LAN PRISCA,,,,,,QUEENSTOWN,SOUTH,GOVERNMENT-AIDED SCH,CO-ED SCHOOL,SINGLE SESSION,PRIMARY,No,No,No,No,Chinese,Malay,Tamil,1.30081995,103.785649
FARRER PARK PRIMARY SCHOOL,http://www.farrerparkpri.moe.edu.sg,2    FARRER PARK ROAD,217567,62952272,na,62942272,na,fpps@moe.edu.sg,Farrer Park MRT Station,131,MISS CHEONG HWEE KHIM,MR RAMESH MUKUNDHAN,,,,,,KALLANG,SOUTH,GOVERNMENT SCHOOL,CO-ED SCHOOL,SINGLE SESSION,PRIMARY,No,No,No,No,Chinese,Malay,Tamil,1.3125247,103.8510382
FENGSHAN PRIMARY SCHOOL,http://www.fengshanpri.moe.edu.sg,307  BEDOK NORTH ROAD,469680,65860123,na,65860122,na,fsps@moe.edu.sg,Bedok MRT,"18, 228, 222, 17, 69, 66, 67, 168, 28, 506, 14, 45",MR POH CHEE YANG,MDM LAI KAI CHING,MR LEE MIN SEN,,,,,BEDOK,EAST,GOVERNMENT SCHOOL,CO-ED SCHOOL,SINGLE SESSION,PRIMARY,No,No,No,No,Chinese,Malay,Tamil,1.3300987,103.9318825
FERN GREEN PRIMARY SCHOOL,www.ferngreenpri.moe.edu.sg,70   Fernvale Link,797538,68343100,na,68343116,na,ferngreen_ps@moe.edu.sg,Kupang LRT Station (SW3),"85, 102",MRS TANG- CHIM LEE MAI,MR SEE KOK KIONG,MDM KYLICIA SOO GEOK LING,,,,,SENG KANG,EAST,GOVERNMENT SCHOOL,CO-ED SCHOOL,SINGLE SESSION,PRIMARY,No,No,No,No,Chinese,Malay,Tamil,1.3976461,103.8800214
FERNVALE PRIMARY SCHOOL,www.fernvalepri.moe.edu.sg,1    Fernvale Lane,797701,63153051,na,63153067,na,fernvale_ps@moe.edu.sg,Fernvale LRT (Sengkang West Loop),"Along Sengkang West Ave - Bus Services 50, 163; Along Yio Chu Kang Road - Bus Services 70, 86, 103 and 854.",MDM BALAKRISHNA VYJANTHIMALA,MISS YAP AI LI,MR YAP LIH MIN SAMUEL,,,,,SENG KANG,NORTH,GOVERNMENT SCHOOL,CO-ED SCHOOL,SINGLE SESSION,PRIMARY,No,No,No,No,Chinese,Malay,Tamil,1.38997975,103.8740776
FIRST TOA PAYOH PRIMARY SCHOOL,http://www.firsttoapayohpri.moe.edu.sg,7    LORONG 8 TOA PAYOH,319252,62567822,na,62561102,na,FTPPS@MOE.EDU.SG,Braddell & Toa Payoh Stations,"157,153,105,159,88,FS238",MR CHUA CHOON GUAN,MDM LOW LEE CHERN,,,,,,TOA PAYOH,SOUTH,GOVERNMENT SCHOOL,CO-ED SCHOOL,SINGLE SESSION,PRIMARY,No,No,No,No,Chinese,Malay,Tamil,1.3404649,103.8558675
FRONTIER PRIMARY SCHOOL,http://www.frontierpri.moe.edu.sg,20   Jurong West Street 61,648200,65789555,na,67908596,na,frontier_ps@moe.edu.sg,Pioneer MRT Station (EW28),"241, 974, 179",MDM LEE YEW KOON TONNINE,MDM CHAN YEE CHIN WILNA,MDM DAPHNE CHAN PEI SZE,,,,,JURONG WEST,WEST,GOVERNMENT SCHOOL,CO-ED SCHOOL,SINGLE SESSION,PRIMARY,No,No,No,No,Chinese,Malay,Tamil,1.3369298,103.6996377
FUCHUN PRIMARY SCHOOL,http://www.fuchunpri.moe.edu.sg,23   WOODLANDS AVENUE 1,739063,63683925,na,63670117,na,FCPS@MOE.EDU.SG,Marsiling,"187,856,912,925,950,960,961,963,963E,963R,966",MRS EUNICE LIM,MISS LIM PEI LIN OLIVIA,MR TAN CHIN KEE,,,,,WOODLANDS,NORTH,GOVERNMENT SCHOOL,CO-ED SCHOOL,SINGLE SESSION,PRIMARY,No,No,No,No,Chinese,Malay,Tamil,1.43072155,103.7782306
FUHUA PRIMARY SCHOOL,http://www.fuhuapri.moe.edu.sg,65   JURONG EAST STREET 13,609647,65624370,na,65639542,na,fhps@moe.edu.sg,JURONG EAST MRT STATION,"JURONG EAST CENTRAL (BS28441): 41,49,52,105,160,160A,160M,176,183,334,506    JURONG EAST CENTRAL (BS28431):51,66,78,79,143, 143M, 176, 335",MR GANESAN S/O RAMAN,MDM TEO SIEW KHIM,,,,,,JURONG EAST,WEST,GOVERNMENT SCHOOL,CO-ED SCHOOL,SINGLE SESSION,PRIMARY,No,No,No,No,Chinese,Malay,Tamil,1.33648535,103.7364545
GAN ENG SENG PRIMARY SCHOOL,http://www.ganengsengpri.moe.edu.sg,100  REDHILL CLOSE,158901,64717451,na,64794152,na,gesps@moe.edu.sg,Redhill,"14, 63, 147, 196, 197, 855, 961","MR LEE WEI YAP, ROY",MDM RINA D/O BHASI,,,,,,BUKIT MERAH,SOUTH,GOVERNMENT SCHOOL,CO-ED SCHOOL,SINGLE SESSION,PRIMARY,No,No,No,No,Chinese,Malay,Tamil,1.28587415,103.8151318
GEYLANG METHODIST SCHOOL (PRIMARY),www.geylangmethodistpri.moe.edu.sg,4    Geylang East Central,389706,67486746,na,67488980,na,GMSP@moe.edu.sg,Aljunied,"80, 134, 155",MDM JENNIFER HAN ENG JUAN,MR LUA EE PING,,,,,,GEYLANG,EAST,GOVERNMENT-AIDED SCH,CO-ED SCHOOL,SINGLE SESSION,PRIMARY,No,No,No,No,Chinese,Malay,Tamil,1.318445,103.8841431
GONGSHANG PRIMARY SCHOOL,http://www.gongshangpri.moe.edu.sg,1    TAMPINES STREET 42,529176,67831191,na,67880004,na,GSPS@MOE.EDU.SG,Tampines (Downtown Line and East West Line) and Tampines East (Downtown Line),"4, 8, 18, 19, 21, 37, 38, 81, 293",MDM LIM TZYY SHIUAN,MRS SELINA LEE,,,,,,TAMPINES,EAST,GOVERNMENT SCHOOL,CO-ED SCHOOL,SINGLE SESSION,PRIMARY,No,No,No,No,Chinese,Malay,na,1.3573263,103.9493111
GREENDALE PRIMARY SCHOOL,http://www.greendalepri.moe.edu.sg,50   Edgedale Plains,828848,68861413,na,68861419,na,greendale_ps@moe.edu.sg,Punggol LRT:  Coral Edge,"3,62, 83, 85, 386",MDM NG SOH HUA,MDM SEING JEE CHING JASMINE,MR TAN SIAN YEOW TERENCE,,,,,PUNGGOL,NORTH,GOVERNMENT SCHOOL,CO-ED SCHOOL,SINGLE SESSION,PRIMARY,No,No,No,No,Chinese,Malay,Tamil,1.39620005,103.9127245
GREENRIDGE PRIMARY SCHOOL,http://www.greenridgepri.moe.edu.sg,11   JELAPANG ROAD,677744,67604265,na,67620189,na,GRPS@MOE.EDU.SG,"Senja LRT station, Jelapang LRT Station","Bus 920, 922, 972",MDM ONG FEI MIN,MDM GOH LUNG ENG,,,,,,BUKIT PANJANG,WEST,GOVERNMENT SCHOOL,CO-ED SCHOOL,SINGLE SESSION,PRIMARY,No,No,No,No,Chinese,Malay,Tamil,1.3856168,103.7680048
GREENWOOD PRIMARY SCHOOL,http://www.greenwoodpri.moe.edu.sg,11   WOODLANDS  DR  62,737942,63666158,na,63666159,na,greenwood_ps@moe.edu.sg,Admiralty MRT Station,"912, 913, 962",MDM TANG PEI LU TRICILIA,MR SATHYA PRASAD S/O G,"MR LEE HUAN SIAK, JAMES",,,,,WOODLANDS,NORTH,GOVERNMENT SCHOOL,CO-ED SCHOOL,SINGLE SESSION,PRIMARY,No,No,No,No,Chinese,Malay,Tamil,1.4399652,103.8047573
GUANGYANG PRIMARY SCHOOL,http://www.guangyangpri.moe.edu.sg,6    Bishan Street 12,579806,62580455,na,62580010,na,GYPS@MOE.EDU.SG,Bishan MRT,"13,52,54,55,56,57,59,88,93,156,157,163,410",MR LAU ENOCH,MR HO SENG TAT SUNNY,,,,,,BISHAN,SOUTH,GOVERNMENT SCHOOL,CO-ED SCHOOL,SINGLE SESSION,PRIMARY,No,No,No,No,Chinese,Malay,Tamil,1.34577845,103.8493008
HAIG GIRLS' SCHOOL,http://www.haiggirls.moe.edu.sg,51   Koon Seng Road,427072,63440293,na,64474169,na,HAIGGIRLSSCH@MOE.EDU.SG,"Eunos, Dakota","16,33",MISS LO YEN NIE,MISS PHUA AI LEI,MDM LEE LI LI,,,,,GEYLANG,EAST,GOVERNMENT SCHOOL,GIRLS' SCHOOL,SINGLE SESSION,PRIMARY,No,No,No,No,Chinese,Malay,Tamil,1.31173415,103.902673
HENRY PARK PRIMARY SCHOOL,http://www.henryparkpri.moe.edu.sg,1    HOLLAND GROVE ROAD,278790,64663600,na,64691840,na,HPPS@MOE.EDU.SG,"Buona Vista MRT, Clementi MRT","7, 61, 75, 156, 157, 165, 92","MR KOH CHIN THONG, MARTIN",MDM WONG SU MAY,MR CHUA CHYE HOCK,,,,,BUKIT TIMAH,WEST,GOVERNMENT SCHOOL,CO-ED SCHOOL,SINGLE SESSION,PRIMARY,No,No,Yes,No,Chinese,Malay,Tamil,1.3170569,103.7842163
HOLY INNOCENTS' PRIMARY SCHOOL,http://www.holyinnocentspri.moe.edu.sg/,5    Lorong Low Koon,536451,62886516,na,62876393,na,HOLYINNOCENTSPRI@MOE.EDU.SG,2km walk to Hougang MRT,"51,72,80,101,119,132,136,153.",MISS SEET ENG GEOK LENA,MS KOH CHIOW TEE THERESA,MDM YUE  SHARON,,,,,HOUGANG,SOUTH,GOVERNMENT-AIDED SCH,CO-ED SCHOOL,SINGLE SESSION,PRIMARY,Yes,No,No,No,Chinese,na,na,1.37499965,103.8574295
HONG WEN SCHOOL,http://www.hongwen.moe.edu.sg,30   TOWNER ROAD,327829,62943340,na,62937625,na,hws@moe.edu.sg,Boon Keng MRT,"Serangoon Road: 13, 23, 31, 64, 65, 66, 125, 133, 147, 857, 985 Balestier Road: 21, 125, 130, 139, 145",MRS THERESA HONG-NG,MR LIM CHONG ENG,,,,,,KALLANG,SOUTH,GOVERNMENT-AIDED SCH,CO-ED SCHOOL,SINGLE SESSION,PRIMARY,Yes,No,No,No,Chinese,na,na,1.32178305,103.8575269
HORIZON PRIMARY SCHOOL,http://www.horizonpri.moe.edu.sg,61   Edgedale Plains,828819,67535411,na,67523971,na,horizon_ps@moe.edu.sg,Punggol MRT Station (NE17)  (LRT: Kadaloor [PE5] or Oasis [PE6]),"3, 50, 83, 85, 569",MDM GRACE HO LI JUN,MR OW EU GENE JOHN,MDM SENTHIL POONKODI D/O R K,,,,,PUNGGOL,NORTH,GOVERNMENT SCHOOL,CO-ED SCHOOL,SINGLE SESSION,PRIMARY,No,No,No,No,Chinese,Malay,Tamil,1.39998505,103.9131162
HOUGANG PRIMARY SCHOOL,http://www.hougangpri.moe.edu.sg/,1    HOUGANG ST 93,534238,64897445,na,64897446,na,HOUGANG_PS@MOE.EDU.SG,"Ang Mo Kio, Buangkok, Hougang, Sengkang, Yio Chu Kang","SBS 43, 72, 88, 101, 109, 116, 156, 159, 325, 329","MR GOH WAI MIN, JASON",MISS LIEW PANG HAI,,,,,,HOUGANG,NORTH,GOVERNMENT SCHOOL,CO-ED SCHOOL,SINGLE SESSION,PRIMARY,No,No,No,No,Chinese,Malay,Tamil,1.3781375,103.8811475
HUAMIN PRIMARY SCHOOL,http://www.huaminpri.moe.edu.sg,21   YISHUN AVENUE 11,768857,67529004,na,67552455,na,huamin_ps@moe.edu.sg,Yishun MRT Station,"806, 804",MDM NOORISMAWATY BTE ISMAIL,MDM BALAKRISHNAN CORINNE ANNE,,,,,,YISHUN,NORTH,GOVERNMENT SCHOOL,CO-ED SCHOOL,SINGLE SESSION,PRIMARY,No,No,No,No,Chinese,Malay,Tamil,1.42686205,103.8442643
INNOVA PRIMARY SCHOOL,http://www.innovapri.moe.edu.sg/,80   Woodlands Drive 17,737888,68944693,na,68942573,na,innova_pri@moe.edu.sg,Woodlands,"900A (weekdays only - 7.00 am to 8.30 am & 4.30 pm to 6.30 pm), 901",MISS WINDERSALAM SHYAMALA DEVI,MDM TAY GEK KHIM,MR LAU YEAN HUI,,,,,WOODLANDS,NORTH,GOVERNMENT SCHOOL,CO-ED SCHOOL,SINGLE SESSION,PRIMARY,No,No,No,No,Chinese,Malay,Tamil,1.4292761,103.7907343
JIEMIN PRIMARY SCHOOL,http://www.jieminpri.moe.edu.sg,2    YISHUN STREET 71,768515,67586472,na,67559958,na,jiemin_ps@moe.edu.sg,Yishun MRT Station,"167,169,171,800,811,000,000,000,000,000,000",MR ANDY MICKEY CHOONG TEK CHOY,MRS NUR FATIMAH FRAUDER,MISS WONG KAH WAN JOY,,,,,YISHUN,NORTH,GOVERNMENT SCHOOL,CO-ED SCHOOL,SINGLE SESSION,PRIMARY,No,No,No,No,Chinese,Malay,Tamil,1.42810765,103.8301709
JING SHAN PRIMARY SCHOOL,http://www.jingshanpri.moe.edu.sg,5    ANG MO KIO ST 52,569228,64566305,na,64581619,na,jsps@moe.edu.sg,Ang Mo Kio MRT,Bus 265,MDM BOEY HUEY PENG SHARON,MISS REZIA RAHUMATHULLAH,MISS NG SUAT THENG ANGELA,,,,,ANG MO KIO,SOUTH,GOVERNMENT SCHOOL,CO-ED SCHOOL,SINGLE SESSION,PRIMARY,No,No,No,No,Chinese,Malay,Tamil,1.3722578,103.8520152
JUNYUAN PRIMARY SCHOOL,https://junyuanpri.moe.edu.sg,2    Tampines Street 91,528906,67830375,na,67887395,na,JUNYUAN_PS@MOE.EDU.SG,Tampines West (Downtown Line); Tampines (East-West Line),"76281: 22, 46, 129 76061: 10, 15, 20, 21, 23, 27, 31, 34, 39, 65, 67, 168, 292 75051: 5, 8, 18, 28, 59, 118",MR CHAN WENG CHEONG,MDM HO LAY YEN JENNY,,,,,,TAMPINES,EAST,GOVERNMENT SCHOOL,CO-ED SCHOOL,SINGLE SESSION,PRIMARY,No,No,No,No,Chinese,Malay,Tamil,1.347782,103.9393972
JURONG PRIMARY SCHOOL,http://www.jurongpri.moe.edu.sg,320  JURONG EAST Street 32,609476,65618837,na,65641964,na,JPS@MOE.EDU.SG,"Lakeside MRT Station, Jurong East MRT Station",333,MR ONG THIAM HUAT ROBIN,MR CHEN ZHONGYI,,,,,,JURONG EAST,WEST,GOVERNMENT SCHOOL,CO-ED SCHOOL,SINGLE SESSION,PRIMARY,No,No,No,No,Chinese,Malay,Tamil,1.3487249,103.7330556
JURONG WEST PRIMARY SCHOOL,http://www.jurongwestpri.moe.edu.sg,30   JURONG WEST ST 61,648368,67933419,na,67936593,na,JWPS@MOE.EDU.SG,Pioneer MRT Station,192,MR CHRIS LOH KAI MUN,MR PILLAY P KRISHNAN,,,,,,JURONG WEST,WEST,GOVERNMENT SCHOOL,CO-ED SCHOOL,SINGLE SESSION,PRIMARY,No,No,No,No,Chinese,Malay,Tamil,1.33931415,103.6990273
JUYING PRIMARY SCHOOL,http://www.juyingpri.moe.edu.sg/,31   JURONG WEST STREET 91,649037,67932039,na,67932040,na,JUYING_PS@MOE.EDU.SG,Boon Lay MRT Station (Jurong Point),SBS 99 (From Clementi Inter-change) SBS 241 (From Boon Lay Inter-change),MRS SROYA JASWANT,MDM SITI SUHAILA BTE SAPIHE,MDM WONG WEI YI,,,,,JURONG WEST,WEST,GOVERNMENT SCHOOL,CO-ED SCHOOL,SINGLE SESSION,PRIMARY,No,No,No,No,Chinese,Malay,Tamil,1.33875125,103.6882538
KEMING PRIMARY SCHOOL,http://www.kemingpri.moe.edu.sg,90   BUKIT BATOK EAST AVENUE 6,659762,68962054,na,65632356,na,KMPS@MOE.EDU.SG,Bukit Batok,"61,66,77,106,157,174,178,963",MRS YAP DAI JEE,"MDM ANG CHAI TING, JESSIE",MISS SARASWATHY D/O IDAMBAN,,,,,BUKIT BATOK,WEST,GOVERNMENT SCHOOL,CO-ED SCHOOL,SINGLE SESSION,PRIMARY,No,No,No,No,Chinese,Malay,Tamil,1.3453422,103.756399
KHENG CHENG SCHOOL,http://www.khengcheng.moe.edu.sg/,15   LORONG 3 TOA PAYOH,319580,62552502,na,62556569,na,kcs@moe.edu.sg,Braddell,"SBS 235,56,73,88,157,159,163,231,",MDM LEONG CHUI YIN SARAH,MR KHOO GHEE HAN,,,,,,TOA PAYOH,SOUTH,GOVERNMENT-AIDED SCH,CO-ED SCHOOL,SINGLE SESSION,PRIMARY,No,No,No,No,Chinese,Malay,na,1.33703365,103.8474423
KONG HWA SCHOOL,http://www.konghwa.moe.edu.sg,350  GUILLEMARD ROAD,399772,63421195,na,63421120,na,KONGHWA_SCH@MOE.EDU.SG,Dakota,"Service 7,70,70M,197(to Guillemard Road)",MR POON SIOW LENG RAYMOND,MDM FOO MEI PING,MS LEE LEY HAR,,,,,GEYLANG,EAST,GOVERNMENT-AIDED SCH,CO-ED SCHOOL,SINGLE SESSION,PRIMARY,Yes,No,No,No,Chinese,na,na,1.3111918,103.8878575
KRANJI PRIMARY SCHOOL,http://kranjipri.moe.edu.sg,11   CHOA CHU KANG STREET 54,689189,67634812,na,67634568,na,kranji_ps@moe.edu.sg,Yew Tee MRT,"Bus No 307, 302",MDM GOH MEEI YUNN,MISS MARION DONNE TAY SZE LENG,,,,,,CHOA CHU KANG,WEST,GOVERNMENT SCHOOL,CO-ED SCHOOL,SINGLE SESSION,PRIMARY,No,No,No,No,Chinese,Malay,Tamil,1.39393915,103.7471551
KUO CHUAN PRESBYTERIAN PRIMARY SCHOOL,http://www.kuochuanpresbyterianpri.moe.edu.sg,8    BISHAN STREET 13,579793,62595396,na,62588012,na,KCPPS@MOE.EDU.SG,Bishan MRT Station,"54, 56, 410, 410G",MRS YEE-TOH GEK KHIAW,MISS CHEW MAY,MR TOH KIM SING (ZHUO JINSHENG),,,,,BISHAN,SOUTH,GOVERNMENT-AIDED SCH,CO-ED SCHOOL,SINGLE SESSION,PRIMARY,No,No,No,No,Chinese,Malay,Tamil,1.3492238,103.8550258
LAKESIDE PRIMARY SCHOOL,http://www.lakesidepri.moe.edu.sg/,161  Corporation Walk,618310,62620918,na,62621021,na,lakeside_ps@moe.edu.sg,Lakeside MRT,"30, 49, 98, 98M",MDM TAN SIEW KHIAN FINELLA,MISS NARAYANASAMY UMA RANI,MISS TAN HUI PING,,,,,JURONG WEST,WEST,GOVERNMENT SCHOOL,CO-ED SCHOOL,SINGLE SESSION,PRIMARY,No,No,No,No,Chinese,Malay,Tamil,1.33834735,103.7179883
LIANHUA PRIMARY SCHOOL,http://www.lianhuapri.moe.edu.sg/,2    BUKIT BATOK STREET 52,659243,65639502,na,65639591,na,lianhua_ps@moe.edu.sg,Bukit Gombak/Bukit Batok,945,MISS KIEW HUI LI PAMELA,MR CHUA KYNN HOWE LEONARD,MDM TAN WAN PHING JANICE,,,,,BUKIT BATOK,WEST,GOVERNMENT SCHOOL,CO-ED SCHOOL,SINGLE SESSION,PRIMARY,No,No,No,No,Chinese,Malay,Tamil,1.35386165,103.7540792
MAHA BODHI SCHOOL,http://www.mahabodhi.moe.edu.sg/,10   UBI AVENUE 1,408931,67442115,na,67443752,na,MBS@MOE.EDU.SG,"Eunos Station (Transfer Bus No.63, 63M) Ubi Station (Transfer Bus No. 137)","5,8,15,22,25,45,51,55,59,61,63,63M,65,66,93,94,854",MRS ELAINE QUEK-LIM HWEE BIN,MR LIM KIM MIN (LIN JINMIN),MDM WANG MING HWEE,,,,,GEYLANG,EAST,GOVERNMENT-AIDED SCH,CO-ED SCHOOL,SINGLE SESSION,PRIMARY,Yes,No,No,No,Chinese,na,na,1.3284777,103.9015345
MARSILING PRIMARY SCHOOL,http://www.marsilingpri.moe.edu.sg,31   WOODLANDS CENTRE ROAD,738927,62696193,na,62699050,na,MARSILING_PS@MOE.EDU.SG,Marsiling MRT Station,"856, 911, 912",MISS CHEE CHUERN HWEI CHERYL,MISS ESTHER ONG CHIN CHIN,MR TAN CHOON SHING,,,,,WOODLANDS,NORTH,GOVERNMENT SCHOOL,CO-ED SCHOOL,SINGLE SESSION,PRIMARY,No,No,No,No,Chinese,Malay,Tamil,1.4341551,103.7733667
MARYMOUNT CONVENT SCHOOL,HTTP://WWW.MARYMOUNTCONVENT.MOE.EDU.SG,20   Marymount Road,297754,6256 6701,6256 6532,6254 3080,na,enquire@marymount.edu.sg,Braddell MRT Station or  Caldecott MRT Station,"141, 235",MRS ALLISON LIM,MDM LEE SWEE MEI CHERYL,MDM TAN MEI MEI ANNA,,,,,TOA PAYOH,SOUTH,GOVERNMENT-AIDED SCH,GIRLS' SCHOOL,SINGLE SESSION,PRIMARY,No,No,No,No,Chinese,Malay,Tamil,1.3402824,103.8397563
MAYFLOWER PRIMARY SCHOOL,http://www.mayflowerpri.moe.edu.sg,6    Ang Mo Kio Avenue 2,569948,64520849,na,64534116,na,MAYFLOWER_PS@MOE.EDU.SG,Yio Chu Kang MRT Station.,"13,86,138,162,269,851,852,853.",MRS LIM- CHUA SIOW LING,MDM CHNG HWUI LIN WINEFREDE,MISS KONG YUIT CHAN NOELLE,,,,,ANG MO KIO,SOUTH,GOVERNMENT SCHOOL,CO-ED SCHOOL,SINGLE SESSION,PRIMARY,No,No,No,No,Chinese,Malay,Tamil,1.3766642,103.8432421
MEE TOH SCHOOL,http://www.meetoh.moe.edu.sg/,21   EDGEDALE PLAINS,828867,64893326,na,64893243,na,MEETOH_SCH@MOE.EDU.SG,Punggol Station,"3,62,83",MDM TAN SUN SUN,MDM TAN LAY WAH,MR LEE CHONG TART RONALD,,,,,PUNGGOL,NORTH,GOVERNMENT-AIDED SCH,CO-ED SCHOOL,SINGLE SESSION,PRIMARY,No,No,No,No,Chinese,Malay,na,1.3948814,103.9085448
MERIDIAN PRIMARY SCHOOL,http://www.meridianpri.moe.edu.sg/,20   PASIR RIS ST 71,518798,65832125,na,65834993,na,MERIDIAN_PS@MOE.EDU.SG,Pasir Ris MRT Station,"3,359",MS LIZA BTE RAHMAT,DR LAU HOCK SOON,,,,,,PASIR RIS,EAST,GOVERNMENT SCHOOL,CO-ED SCHOOL,SINGLE SESSION,PRIMARY,No,No,No,No,Chinese,Malay,Tamil,1.37603155,103.9351592
METHODIST GIRLS' SCHOOL (PRIMARY),http://www.mgs.sch.edu.sg,11   Blackmore Drive,599986,64694800,na,64624166,na,mgps@moe.edu.sg,King Albert Park MRT,"66, 67, 74, 77, 151, 154, 157, 170, 171, 174, 852, 961, 970",NG WUN HAR GRACE,MISS LIM JING WEN KAREN,MISS HANNAH CHIA CUI'E,,,,,BUKIT TIMAH,WEST,GOVERNMENT-AIDED SCH,GIRLS' SCHOOL,SINGLE SESSION,PRIMARY,No,No,No,No,Chinese,Malay,Tamil,1.33284035,103.7835765
MONTFORT JUNIOR SCHOOL,http://www.montfortjunior.moe.edu.sg/,52   HOUGANG AVENUE 8,538786,65101588,na,65101599,na,MONTFORT_JS@MOE.EDU.SG,Hougang MRT & Bus Interchange,"74,88,101,147,161,",MR WONG KENG YUIN WILBUR,MDM POH LEE SIEW,MR TAN WEE BOON,,,,,HOUGANG,NORTH,GOVERNMENT-AIDED SCH,BOYS' SCHOOL,SINGLE SESSION,PRIMARY,No,No,No,No,Chinese,Malay,Tamil,1.37465235,103.8895368
NAN CHIAU PRIMARY SCHOOL,http://www.ncps.moe.edu.sg,50   ANCHORVALE LINK,545080,64897905,na,64897906,na,NCPS@MOE.EDU.SG,Sengkang Station,"156, 159, 161, 371, 372",MRS ONG LOH JIA MIIN,MDM LIM SHEUE TYUG,MR JACKSON KEK,,,,,SENG KANG,NORTH,GOVERNMENT-AIDED SCH,CO-ED SCHOOL,SINGLE SESSION,PRIMARY,No,No,No,No,Chinese,Malay,Tamil,1.39202675,103.8910424
NAN HUA PRIMARY SCHOOL,http://www.nanhuapri.moe.edu.sg,30   Jalan Lempeng,128806,67788050,na,67784127,na,nhps@moe.edu.sg,Clementi MRT Station,"30, 51, 143, 175, 201, 533, 655, 727, 762",MDM CHIA HUI KHIM,MDM JOSEPHINE NG,MISS TAN PEIRU,,,,,CLEMENTI,WEST,GOVERNMENT-AIDED SCH,CO-ED SCHOOL,DOUBLE SESSION,PRIMARY,Yes,No,Yes,No,Chinese,na,na,1.31983825,103.7616751
NANYANG PRIMARY SCHOOL,http://www.nyps.moe.edu.sg,52   KING'S ROAD,268097,64672677,na,64686913,na,NYPS@MOE.EDU.SG,Farrer Rd MRT Station,"66, 67, 74, 93, 151, 153, 154, 156, 157, 165, 170, 171, 174, 186, 852, 855, 961",MDM LER JIA LUEN,MDM NG BOON IN,MR CHAN CHEONG CHEONG,,,,,BUKIT TIMAH,WEST,GOVERNMENT-AIDED SCH,CO-ED SCHOOL,SINGLE SESSION,PRIMARY,Yes,No,Yes,No,Chinese,na,na,1.32083185,103.8082166
NAVAL BASE PRIMARY SCHOOL,http://www.navalbasepri.moe.edu.sg/,7    YISHUN AVE 4,769028,67537114,na,67555355,na,NBPS@MOE.EDU.SG,Yishun MRT Station,Feeder bus No. 811 from Yishun Interchange.,MRS SITA SINGH,MR MUHAMMAD FAISAL B PAIRIN,MDM LIM WAI CHOO,,,,,YISHUN,NORTH,GOVERNMENT SCHOOL,CO-ED SCHOOL,SINGLE SESSION,PRIMARY,No,No,No,No,Chinese,Malay,Tamil,1.4165306,103.838461
NEW TOWN PRIMARY SCHOOL,http://www.newtownpri.moe.edu.sg/,300  Tanglin Halt Road,148812,64748805,na,64741249,na,NTPS@MOE.EDU.SG,Commonwealth MRT Station,"SBS Numbers 32, 100, 105, 111, 145, 147, 195, 196, 198, 855",MRS TAN-NG WIE PIN,MR ONG SZE CHONG BRYAN,MRS CHAN-CHIN WEY LING LYNNE,,,,,QUEENSTOWN,SOUTH,GOVERNMENT SCHOOL,CO-ED SCHOOL,SINGLE SESSION,PRIMARY,No,No,No,No,Chinese,Malay,Tamil,1.29972515,103.8000851
NGEE ANN PRIMARY SCHOOL,http://www.ngeeannpri.moe.edu.sg,344  MARINE TERRACE,449149,64418677,na,64417411,na,NAPS@MOE.EDU.SG,Nil,"13, 16, 16M, 31,36, 43, 47, 48, 55, 135, 196, 196E, 197, 853M (at Marine Parade road) 13, 16, 16M, 196 and 196E(at Marine Terrace)",MDM PANG SIU SAN,MISS LIAW SHAOJUN,,,,,,MARINE PARADE,EAST,GOVERNMENT-AIDED SCH,CO-ED SCHOOL,SINGLE SESSION,PRIMARY,No,No,No,No,Chinese,Malay,Tamil,1.30554595,103.9179525
NORTH SPRING PRIMARY SCHOOL,http://www.northspringpri.moe.edu.sg,1    RIVERVALE STREET,545088,68816887,63888764,63851044,na,nsps@moe.edu.sg,NEL - Sengkang Station LRT - Bakau Station,"SBS Transit Services 82, 85, 86, 88, 119, 136, 163, 372",MDM PHAN SWEE LIN SHERIN JACINTA,MR JASBIR SINGH,,,,,,SENG KANG,NORTH,GOVERNMENT SCHOOL,CO-ED SCHOOL,SINGLE SESSION,PRIMARY,No,No,No,No,Chinese,Malay,Tamil,1.3876014,103.9037892
NORTH VIEW PRIMARY SCHOOL,http://www.northviewpri.moe.edu.sg,210  YISHUN AVENUE 6,768960,67593235,na,67593237,na,NVPS@MOE.EDU.SG,Yishun Khatib,"Feeder Service 804, 806, 807, 860",MDM WONG MEI FOONG,MDM UE TAY SZE YIN,MR RAJINDER SINGH S/O PIARA SINGH,MR HANIFF A T,,,,YISHUN,NORTH,GOVERNMENT SCHOOL,CO-ED SCHOOL,SINGLE SESSION,PRIMARY,No,No,No,No,Chinese,Malay,Tamil,1.42773465,103.8486566
NORTH VISTA PRIMARY SCHOOL,http://www.northvistapri.moe.edu.sg,20   Compassvale Link,544974,64843566,na,64843568,na,nvtps@moe.edu.sg,"Buangkok MRT (NE15), Ranggung LRT (SE5)",na,MR ONG LYE WHATT,MR WEE HOCK MENG VICTOR,MR AMRAN B TASRIF,,,,,SENG KANG,NORTH,GOVERNMENT SCHOOL,CO-ED SCHOOL,SINGLE SESSION,PRIMARY,No,No,No,No,Chinese,Malay,na,1.3828948,103.8959771
NORTHLAND PRIMARY SCHOOL,http://www.northlandpri.moe.edu.sg,15   YISHUN AVENUE 4,769026,67598884,na,67559196,na,NORTHLAND_PS@MOE.EDU.SG,Yishun MRT Station,812 (next to bus service number 171) at Yishun Interchange,MR JAY WESTLY MAHARDALE,MDM NEO AIK SEO,,,,,,YISHUN,NORTH,GOVERNMENT SCHOOL,CO-ED SCHOOL,SINGLE SESSION,PRIMARY,No,No,No,No,Chinese,Malay,Tamil,1.4212034,103.840584
NORTHOAKS PRIMARY SCHOOL,http://www.northoakspri.moe.edu.sg,61   Sembawang Drive,757622,6753 8835,na,6753 8864,na,northoaks_ps@moe.edu.sg,Sembawang MRT,Bus number 962,"MR CHER TECK YIANG, LUKE MELVIN",MISS TAN YIT PENG,MDM HO JUN- LYNN,,,,,SEMBAWANG,NORTH,GOVERNMENT SCHOOL,CO-ED SCHOOL,SINGLE SESSION,PRIMARY,No,No,No,No,Chinese,Malay,Tamil,1.45694685,103.813541
NORTHSHORE PRIMARY SCHOOL,www.northshorepri.moe.edu.sg,30   Northshore Drive,828671,62026490,na,62026491,na,northhshore_ps@moe.edu.sg,Puggol Point LRT Station,"84, 384",MDM LEE YEN PING CHRISTINE,MDM GAN SER MIN,,,,,,PUNGGOL,EAST,GOVERNMENT SCHOOL,CO-ED SCHOOL,SINGLE SESSION,PRIMARY,No,No,No,No,Chinese,Malay,Tamil,1.4180938,103.904667
OASIS PRIMARY SCHOOL,http://www.oasispri.moe.edu.sg/,71   Edgefield Plains,828716,6320 9855,na,6320 9856,na,oasis_ps@moe.edu.sg,Damai LRT Station,"50, 386",MRS ONG-CHEW LU SEE,MDM NG YIN SZE JOSEPHINE,MDM CHUT SHI LIN,,,,,PUNGGOL,EAST,GOVERNMENT SCHOOL,CO-ED SCHOOL,SINGLE SESSION,PRIMARY,No,No,No,No,Chinese,Malay,Tamil,1.40470205,103.911008
OPERA ESTATE PRIMARY SCHOOL,http://www.operaestatepri.moe.edu.sg,48   FIDELIO STREET,458436,62410417,na,64493042,na,oeps@moe.edu.sg,"Bedok, Kembangan",42,MDM LOE LAI PINK,MDM ADILA ONG KIM LUAN,MR RAYMOND TAY KOON MING,,,,,BEDOK,EAST,GOVERNMENT SCHOOL,CO-ED SCHOOL,SINGLE SESSION,PRIMARY,No,No,No,No,Chinese,Malay,Tamil,1.3196642,103.923766
PALM VIEW PRIMARY SCHOOL,http://www.palmviewpri.moe.edu.sg,150  Compassvale Bow,544822,65087300,na,68754150,na,palmview_ps@moe.edu.sg,Buangkok,"27,43,109,156,159,161,163,163M,550",MRS MING KUM,MR LOH BIN,,,,,,SENG KANG,NORTH,GOVERNMENT SCHOOL,CO-ED SCHOOL,SINGLE SESSION,PRIMARY,No,No,No,No,Chinese,Malay,na,1.38410015,103.8911544
PARK VIEW PRIMARY SCHOOL,http://www.parkviewpri.moe.edu.sg,60   PASIR RIS DRIVE 1,519524,65851421,na,65851401,na,PVPS@MOE.EDU.SG,Pasir Ris MRT Station,"358,39,53,81,89",MISS OH SEE MOEY,MDM HO FUI FONG,,,,,,PASIR RIS,EAST,GOVERNMENT SCHOOL,CO-ED SCHOOL,SINGLE SESSION,PRIMARY,No,No,No,No,Chinese,Malay,Tamil,1.3776122,103.9392671
PASIR RIS PRIMARY SCHOOL,http://www.pasirrispri.moe.edu.sg,5    PASIR RIS STREET 21,518968,65822606,na,65828492,na,prps@moe.edu.sg,Pasir Ris MRT,"3,5,6,89",MR TAN KING MING,MDM THILAGAMANI D/O T SIVANANDAM,,,,,,PASIR RIS,EAST,GOVERNMENT SCHOOL,CO-ED SCHOOL,SINGLE SESSION,PRIMARY,No,No,No,No,Chinese,Malay,Tamil,1.37215285,103.9630263
PAYA LEBAR METHODIST GIRLS' SCHOOL (PRIMARY),http://www.payalebarmethodistgirlspri.moe.edu.sg/,298  LORONG AH SOO,536741,62862795,na,62803915,na,PLMGPS@MOE.EDU.SG,"Kovan (NE13), Serangoon(NE12/CC13)","45, 53, 53M, 62, 113",MRS JOYCE ANG,MS GRACE TAY MENG HON,,,,,,HOUGANG,EAST,GOVERNMENT-AIDED SCH,GIRLS' SCHOOL,SINGLE SESSION,PRIMARY,No,No,No,No,Chinese,Malay,Tamil,1.34993195,103.8849238
PEI CHUN PUBLIC SCHOOL,http://www.peichunpublic.moe.edu.sg,16   LORONG 7 TOA PAYOH,319320,63539450,na,63538418,na,PCPS@MOE.EDU.SG,Toa Payoh MRT Station and Braddell MRT Station,"Bus Service 232, 57",MR LIM MENG WEI,MISS ADELINE LEONG QINGHUA,MISS SNG WAN XIAN,,,,,TOA PAYOH,SOUTH,GOVERNMENT-AIDED SCH,CO-ED SCHOOL,SINGLE SESSION,PRIMARY,Yes,No,No,No,Chinese,na,na,1.3370857,103.8556799
PEI HWA PRESBYTERIAN PRIMARY SCHOOL,http://www.peihwapresbyterianpri.moe.edu.sg/,7    PEI WAH AVENUE,597610,64663787,64663797,64621944,na,phpps@moe.edu.sg,Beauty World,"970, 852, 174, 173, 157, 77, 61",MRS ELSIE POEY,MRS JACQUELINE HIEW,MDM YONG MING WOEI CHLOE,,,,,BUKIT TIMAH,WEST,GOVERNMENT-AIDED SCH,CO-ED SCHOOL,DOUBLE SESSION,PRIMARY,Yes,No,No,No,Chinese,na,na,1.3380993,103.7762188
PEI TONG PRIMARY SCHOOL,http://www.peitongpri.moe.edu.sg/,15   CLEMENTI AVENUE 5,129857,67775458,na,67789784,na,PTPS@MOE.EDU.SG,Clementi,"7, 184, 282",MRS NG- TEO SOCK HUA,MDM LIM WAI PING PATRICIA,,,,,,CLEMENTI,SOUTH,GOVERNMENT SCHOOL,CO-ED SCHOOL,SINGLE SESSION,PRIMARY,No,No,No,No,Chinese,Malay,Tamil,1.31626635,103.7678409
PEIYING PRIMARY SCHOOL,http://www.peiyingpri.moe.edu.sg,651  YISHUN RING ROAD,768687,62575684,na,67558802,na,peiying_ps@moe.edu.sg,Khatib,"851, 852, 853, 854, 855",MDM WONG WEI YONG,MR ABDUL RANI BIN IDRIS,,,,,,YISHUN,NORTH,GOVERNMENT SCHOOL,CO-ED SCHOOL,SINGLE SESSION,PRIMARY,No,No,No,No,Chinese,Malay,Tamil,1.41751755,103.8303424
PIONEER PRIMARY SCHOOL,http://www.pioneerpri.moe.edu.sg,23   JURONG WEST STREET 81,649076,67932397,na,67933974,na,pioneer_ps@moe.edu.sg,Boon Lay Station,243,MDM LOKE WAI LING,MR TAN HOCK CHYE CHARLES,MDM CHOO SIEW HONG,,,,,JURONG WEST,WEST,GOVERNMENT SCHOOL,CO-ED SCHOOL,SINGLE SESSION,PRIMARY,No,No,No,No,Chinese,Malay,Tamil,1.3489146,103.6948087
POI CHING SCHOOL,http://www.poiching.moe.edu.sg,21   TAMPINES STREET 71,529067,67856420,na,67857198,na,contact@poiching.moe.edu.sg,Tampines MRT,"Bus 293, 72, 27 and 168",MDM CHUA YE LING,MDM PEH TAN WEE,MS TAN SEOK KUAN,,,,,TAMPINES,EAST,GOVERNMENT-AIDED SCH,CO-ED SCHOOL,SINGLE SESSION,PRIMARY,Yes,No,No,No,Chinese,na,na,1.3577705,103.9354999
PRINCESS ELIZABETH PRIMARY SCHOOL,http://www.princesselizabethpri.moe.edu.sg,30   BUKIT BATOK WEST AVENUE 3,659163,65655111,na,65637859,na,PEPS@MOE.EDU.SG,Bukit Batok MRT Station,"Bus 174, 157, 178, 66, 941",MDM MOLIAH BINTE HASHIM,MISS NGIAM WEE HENG,MR LEE FOOK LOONG EUGENE,,,,,BUKIT BATOK,WEST,GOVERNMENT SCHOOL,CO-ED SCHOOL,SINGLE SESSION,PRIMARY,No,No,No,No,Chinese,Malay,Tamil,1.3493822,103.7409542
PUNGGOL COVE PRIMARY SCHOOL,https://punggolcovepri.moe.edu.sg/,52   Sumang Walk,828674,63857339,na,63857261,na,punggolcove_ps@moe.edu.sg,Nibong LRT Station,"382W, 84","MR YAP SWEE BENG, DENNIS",MISS THIA HWEI LING SHARON,MR WAN IMRAN BIN MOHAMED WOOJDY,,,,,PUNGGOL,EAST,GOVERNMENT SCHOOL,CO-ED SCHOOL,SINGLE SESSION,PRIMARY,No,No,No,No,Chinese,Malay,Tamil,1.4117401,103.8992192
PUNGGOL GREEN PRIMARY SCHOOL,http://www.punggolgreenpri.moe.edu.sg,98   Punggol Walk,828772,65383011,na,65383210,na,admin_punggolgreen_ps@moe.edu.sg,Punggol MRT Station,na,MR HANAFI B ASMORE,MISS TAN HUILING CHERYL,DR LEE KOK SONK,,,,,PUNGGOL,EAST,GOVERNMENT SCHOOL,CO-ED SCHOOL,SINGLE SESSION,PRIMARY,No,No,No,No,Chinese,Malay,Tamil,1.40198075,103.8985488
PUNGGOL PRIMARY SCHOOL,http://www.punggolpri.moe.edu.sg/,61   HOUGANG AVENUE 8,538787,63850762,na,63877793,na,punggol_ps@moe.edu.sg,"Hougang, Buangkok",62 74 88 113 147 325,MISS CHEW TOCK LEE,MISS KAREN YAW LI LING,,,,,,HOUGANG,SOUTH,GOVERNMENT SCHOOL,CO-ED SCHOOL,SINGLE SESSION,PRIMARY,No,No,No,No,Chinese,Malay,Tamil,1.37813115,103.8947545
PUNGGOL VIEW PRIMARY SCHOOL,http://www.punggolviewpri.moe.edu.sg,9    Punggol Place,828845,6570 1588,na,6570 3680,na,punggolview_ps@moe.edu.sg,Punggol MRT Station,50 382,DR ANG WEK CHENG,MDM SHARIFAH SAMIRAH BTE SYED MOHAMAD,MR GOH ZENSEN,,,,,PUNGGOL,EAST,GOVERNMENT SCHOOL,CO-ED SCHOOL,SINGLE SESSION,PRIMARY,No,No,No,No,Chinese,Malay,Tamil,1.4053286,103.9052782
QIFA PRIMARY SCHOOL,http://www.qifapri.moe.edu.sg,50   WEST COAST AVENUE,128104,67783085,na,67761485,na,QIFA_PS@MOE.EDU.SG,Clementi MRT Station,"30,51,78,143,285,655",MRS CATHERINE CHIANG,"MDM CHAN SIN LI, CINDY",MR WONG WOEN LONG,,,,,CLEMENTI,WEST,GOVERNMENT SCHOOL,CO-ED SCHOOL,SINGLE SESSION,PRIMARY,No,No,No,No,Chinese,Malay,Tamil,1.31280555,103.756965
QIHUA PRIMARY SCHOOL,http://www.qihuapri.moe.edu.sg,5    WOODLANDS STREET 81,738525,62696250,na,62693114,na,QIHUA_PS@MOE.EDU.SG,Woodlands MRT Station,"911, 900",MRS LEE HUI FENG,MR FOO CHUAN KAI,MR GOH GIAM HWEE (WU JIANHUI),,,,,WOODLANDS,NORTH,GOVERNMENT SCHOOL,CO-ED SCHOOL,SINGLE SESSION,PRIMARY,No,No,No,No,Chinese,Malay,Tamil,1.4420502,103.7883337
QUEENSTOWN PRIMARY SCHOOL,http://www.queenstownpri.moe.edu.sg,310  MARGARET DR,149303,64741044,na,64713640,na,qtps@moe.edu.sg,Queenstown MRT,"32, 111, 145, 195",MISS NG POR JOO PEARLY,MR ATRAJU S/O KANAN RAMDAS,,,,,,QUEENSTOWN,SOUTH,GOVERNMENT SCHOOL,CO-ED SCHOOL,SINGLE SESSION,PRIMARY,No,No,No,No,Chinese,Malay,Tamil,1.2960256,103.8078517
RADIN MAS PRIMARY SCHOOL,http://www.radinmasps.moe.edu.sg,1    BUKIT PURMEI AVENUE,99840,62733937,na,62763083,na,rmps@moe.edu.sg,Tiong Bahru MRT HarbourFront MRT,"SBS 123, 131, 275 SBS 65",MR MUHAMMAD FARIZAL BIN UMAR EFFE,MRS LINDA TAN,,,,,,BUKIT MERAH,SOUTH,GOVERNMENT SCHOOL,CO-ED SCHOOL,SINGLE SESSION,PRIMARY,No,No,No,No,Chinese,Malay,Tamil,1.2750442,103.8240239
RAFFLES GIRLS' PRIMARY SCHOOL,http://www.rafflesgirlspri.moe.edu.sg,21   Hillcrest Road,289072,64684377,na,64692024,na,RGPS@MOE.EDU.SG,TAN KAH KEE MRT STATION,"66, 67, 74, 151, 154, 156, 157, 170, 171, 174, 852, 961",MRS YUE YOKE MUN NEE WAI,MISS CHEN MEI CHUEN,MISS KONG SU MAY,,,,,BUKIT TIMAH,SOUTH,GOVERNMENT SCHOOL,GIRLS' SCHOOL,SINGLE SESSION,PRIMARY,No,No,Yes,No,Chinese,Malay,Tamil,1.33012955,103.8062623
RED SWASTIKA SCHOOL,http://www.redswastika.moe.edu.sg,350  BEDOK NORTH AVENUE 3,469719,64430380,na,62448391,na,REDSWASTIKA@MOE.EDU.SG,Bedok Reservoir MRT,"Bus 14, 17, 28, 46, 66, 67, 69, 222, 228",MS JESSIE LIM CHIEN CHIN,MS ANGELA GOH BEE LIAN,MDM ESTHER E TZY KWEI,,,,,BEDOK,EAST,GOVERNMENT-AIDED SCH,CO-ED SCHOOL,SINGLE SESSION,PRIMARY,Yes,No,No,No,Chinese,na,na,1.3336412,103.9346186
RIVER VALLEY PRIMARY SCHOOL,http://www.rivervalleypri.moe.edu.sg,2    RIVER VALLEY GREEN,237993,67371785,na,67321951,na,rvps@moe.edu.sg,Somerset MRT,"5, 16, 32, 54, 65, 75, 175, 970",MDM WONG LI PENG,MR PHANG ENG POH,DR AUDREY KOH CHOUK ENG,,,,,CENTRAL,SOUTH,GOVERNMENT SCHOOL,CO-ED SCHOOL,SINGLE SESSION,PRIMARY,No,No,No,No,Chinese,Malay,Tamil,1.29398185,103.8360847
RIVERSIDE PRIMARY SCHOOL,http://www.riversidepri.moe.edu.sg,110  Woodlands Crescent,737803,63654490,na,63654460,na,riverside_ps@moe.edu.sg,Admiralty MRT Station,Bus No 913 and Bus No 964,MR TAN CHOON KHENG,MDM KHOO PHAIK HOON REGINA,MRS RANUKA PALANIVELU,,,,,WOODLANDS,NORTH,GOVERNMENT SCHOOL,CO-ED SCHOOL,SINGLE SESSION,PRIMARY,No,No,No,No,Chinese,Malay,Tamil,1.4472779,103.8018328
RIVERVALE PRIMARY SCHOOL,http://www.rivervalepri.moe.edu.sg/,80   RIVERVALE DRIVE,545092,63887450,na,63887449,na,RIVERVALE_PS@MOE.EDU.SG,Nearest LRT Station : Rumbia,"Bus Service 86, 371.",MISS RADHA D/O G SUBRAMANIAM,MR KNG WEE BENG,,,,,,SENG KANG,NORTH,GOVERNMENT SCHOOL,CO-ED SCHOOL,SINGLE SESSION,PRIMARY,No,No,No,No,Chinese,Malay,Tamil,1.39365955,103.9046125
ROSYTH SCHOOL,https://www.rosyth.moe.edu.sg,21   Serangoon North Avenue 4,555855,64812273,na,64831102,na,rosyth_sch@schools.gov.sg,"Ang Mo Kio, Serangoon","73, 315, 116",MDM ELIS TAN LEE CHING,MR CHIEW JING WEN,MS POH HWEE THING,,,,,SERANGOON,NORTH,GOVERNMENT SCHOOL,CO-ED SCHOOL,SINGLE SESSION,PRIMARY,No,No,Yes,No,Chinese,Malay,Tamil,1.3728695,103.8745093
RULANG PRIMARY SCHOOL,http://www.rulangpri.moe.edu.sg/,6    JURONG WEST STREET 52,649295,65657771,na,65632382,na,RULANG_PS@MOE.EDU.SG,Lakeside,SBS 335,MS TRACY TAN I- LIAN,MISS NG MEI YUN,DR CHOONG PEK LAN,,,,,JURONG WEST,WEST,GOVERNMENT SCHOOL,CO-ED SCHOOL,DOUBLE SESSION,PRIMARY,No,No,No,No,Chinese,Malay,Tamil,1.34660905,103.718737
SEMBAWANG PRIMARY SCHOOL,http://www.sembawangpri.moe.edu.sg,10   SEMBAWANG DRIVE,757715,67567330,na,67560367,na,SEMBAWANG_PS@MOE.EDU.SG,Sembawang MRT (6 to 8-minute walk),"656, 859, 962, 980",MRS GRACE CHUA,MDM LIM SIEW CHENG CINDY,,,,,,SEMBAWANG,NORTH,GOVERNMENT SCHOOL,CO-ED SCHOOL,SINGLE SESSION,PRIMARY,No,No,No,No,Chinese,Malay,Tamil,1.4452989,103.8208904
SENG KANG PRIMARY SCHOOL,http://www.sengkangpri.moe.edu.sg/,21   COMPASSVALE WALK,545166,63840809,na,63840839,na,SKPS@MOE.EDU.SG,Sengkang MRT,"27, 80, 82, 83, 86, 87, 88, 89, 119, 156, 163, 371, 372 & 965",MDM SEAH WHYE CHOO,MISS THIEN LI CHIN,,,,,,SENG KANG,NORTH,GOVERNMENT SCHOOL,CO-ED SCHOOL,SINGLE SESSION,PRIMARY,No,No,No,No,Chinese,Malay,Tamil,1.38939055,103.8993953
SENGKANG GREEN PRIMARY SCHOOL,http://www.sengkanggreenpri.moe.edu.sg/,15   Fernvale Road,797636,63864255,na,62428796,na,sengkanggreen_ps@moe.edu.sg,Fernvale LRT (SW5) - (Sengkang West Loop),"Sengkang and Toa Payoh interchange - no 163, Along Yio Chu Kang Road, - no 70, 86, 103 and 854.Punggol Temp Interchange to Bishan Interchange - Bus 50",MR GAU POH TECK,MR LIM JIT HIN,MISS SABARIAH BTE SUBARI,,,,,SENG KANG,EAST,GOVERNMENT SCHOOL,CO-ED SCHOOL,SINGLE SESSION,PRIMARY,No,No,No,No,Chinese,Malay,Tamil,1.39288245,103.8748036
SHUQUN PRIMARY SCHOOL,http://www.shuqunpri.moe.edu.sg,8    JURONG WEST STREET 51,649332,65637129,na,65637418,na,sqps@moe.edu.sg,W11 Lakeside,"98, 187, 335",MRS SARA DE SOUZA,MDM ADELINE CHONG,MR MUHAMMAD FADYLLA B RASHIMAN,,,,,JURONG WEST,WEST,GOVERNMENT SCHOOL,CO-ED SCHOOL,SINGLE SESSION,PRIMARY,No,No,No,No,Chinese,Malay,Tamil,1.34712705,103.7215902
SI LING PRIMARY SCHOOL,http://www.silingpri.moe.edu.sg,61   WOODLANDS AVENUE 1,739067,62698832,na,63675516,na,SLPS@MOE.EDU.SG,Woodlands,912 from Woodlands Interchange,MR KOE EE TIONG,MR ANDREW NG SIOK KWANG,,,,,,WOODLANDS,NORTH,GOVERNMENT SCHOOL,CO-ED SCHOOL,SINGLE SESSION,PRIMARY,No,No,No,No,Chinese,Malay,Tamil,1.432724,103.7857785
SINGAPORE CHINESE GIRLS' PRIMARY SCHOOL,www.scgs.moe.edu.sg,190  DUNEARN ROAD,309437,62527966,na,62523076,na,SCGPS@MOE.EDU.SG,Stevens,"66, 67, 105, 132, 151, 153, 154, 156, 170, 171, 186, 190, 605, 700, 960",MDM TAN YUNCHIN EUGENIA,MDM PHUA KIA LING,,,,,,NOVENA,NORTH,GOVERNMENT-AIDED SCH,GIRLS' SCHOOL,SINGLE SESSION,PRIMARY,No,No,No,No,Chinese,Malay,Tamil,1.3210897,103.8278673
SOUTH VIEW PRIMARY SCHOOL,http://www.southviewpri.moe.edu.sg,6    Choa Chu Kang Central,689762,67697176,na,67631091,na,SVPS@MOE.EDU.SG,Choa Chu Kang MRT Station,307 / South View LRT Station,MDM SHARIDA BINTE BATCHA SAHIB,MISS TAN WAN KHENG,MISS ACHARY GOPALAN SHIYAMALA,,,,,CHOA CHU KANG,WEST,GOVERNMENT SCHOOL,CO-ED SCHOOL,SINGLE SESSION,PRIMARY,No,No,No,No,Chinese,Malay,Tamil,1.38167325,103.7468218
SPRINGDALE PRIMARY SCHOOL,http://springdalepri.moe.edu.sg/,71   Anchorvale Link,544799,+65 63157600,na,+65 63153351,na,springdale_ps@moe.edu.sg,Sengkang Station (NE16)  Nearest LRT station: Farmway  *10-15 min walk from either station,"50, 85, 102, 372    Nearest Bus Stop: In front of Blk 326 Car Park  *1-2 min walk from bus stop; enter by Main Gate along Anchorvale Link or Rear Gate",MDM NEO LAY WAH,MR HO WEE MIN KELVIN,MR SHOEB BURHANUDDIN,,,,,SENG KANG,EAST,GOVERNMENT SCHOOL,CO-ED SCHOOL,SINGLE SESSION,PRIMARY,No,No,No,No,Chinese,Malay,Tamil,1.3949768,103.8897766
ST. ANDREW'S JUNIOR SCHOOL,http://www.saintandrewsjunior.moe.edu.sg,2    FRANCIS THOMAS DRIVE,359337,62884303,na,62895242,na,sajs@moe.edu.sg,"Potong Pasir,Toa Payoh","8,13,26,31,90,90A,107,133,142,147,853,NR6",MISS NEO PHEI TZE PATSY,MR THAM KINE CHUEN THOMAS,,,,,,TOA PAYOH,SOUTH,GOVERNMENT-AIDED SCH,BOYS' SCHOOL,SINGLE SESSION,PRIMARY,No,No,No,No,Chinese,Malay,Tamil,1.3314877,103.8650956
ST. ANTHONY'S CANOSSIAN PRIMARY SCHOOL,http://www.stanthonyscanossianpri.moe.edu.sg,1602 BEDOK NORTH AVE 4,469701,64492239,na,64492146,na,sacps@moe.edu.sg,Bedok MRT,17,MDM KOK LAI YOKE,MRS IRENE GOH HOCK NGUAN,MDM ARIKEN CHARMAINE CARRIE,,,,,BEDOK,EAST,GOVERNMENT-AIDED SCH,GIRLS' SCHOOL,SINGLE SESSION,PRIMARY,No,No,No,No,Chinese,Malay,Tamil,1.3349316,103.9408662
ST. ANTHONY'S PRIMARY SCHOOL,http://www.stanthonyspri.moe.edu.sg,30   Bukit Batok St 32,659401,65690822,na,65690811,na,SAPS@MOE.EDU.SG,Bukit Gombak MRT Station,945,MISS CECILIA LIM SEOK CHENG,MDM SEOW SWEE NEO CHRISTINA,MISS MATHEW ANNA,,,,,BUKIT BATOK,WEST,GOVERNMENT-AIDED SCH,CO-ED SCHOOL,SINGLE SESSION,PRIMARY,No,No,No,No,Chinese,Malay,Tamil,1.36448445,103.7492357
ST. GABRIEL'S PRIMARY SCHOOL,http://www.stgabrielspri.moe.edu.sg,220  Lorong Chuan,556742,62803628,na,63820344,na,STGPS@MOE.EDU.SG,Lor Chuan MRT Station (Circle Line),"73, 105, 159",MR MARTIN TAN SIEW KIN,MR KEITH TAN CHIN HENG,,,,,,SERANGOON,SOUTH,GOVERNMENT-AIDED SCH,BOYS' SCHOOL,SINGLE SESSION,PRIMARY,No,No,No,No,Chinese,Malay,Tamil,1.34972,103.8621645
ST. HILDA'S PRIMARY SCHOOL,http://www.shps.moe.edu.sg,2    Tampines Ave 3,529706,67811916,na,67830527,na,shps@moe.edu.sg,"Tampines West, Tampines Central",Feeder Bus service: 293 from Tampines Interchange (towards St 71),MDM LEONG BENG YUET DAPHNE,MR ANG WEI TECK,MDM GOH HUI CHENG,,,,,TAMPINES,EAST,GOVERNMENT-AIDED SCH,CO-ED SCHOOL,SINGLE SESSION,PRIMARY,No,No,Yes,No,Chinese,Malay,Tamil,1.3493751,103.9365936
ST. JOSEPH'S INSTITUTION JUNIOR,http://www.sjijunior.edu.sg,3    ESSEX ROAD,309331,62552700,na,62557455,na,sjijunior@moe.edu.sg,Novena,21;54;56;57;124;131;141;166;518;851;980,MR LEONG YEW HON ERIC,"MISS YAK HIOK WOON, FAITH",,,,,,NOVENA,SOUTH,GOVERNMENT-AIDED SCH,BOYS' SCHOOL,SINGLE SESSION,PRIMARY,No,No,No,No,Chinese,Malay,Tamil,1.31754345,103.8463068
ST. MARGARET'S PRIMARY SCHOOL,na,2    Mattar Road,387724,na,na,na,na,na,Mattar MRT Station (DT25),"40, 61, 63, 65, 66, 135, 154, 155, 158",MRS KO-TAN LI LING,MDM ALISON ANG SIOK PHING,,,,,,CENTRAL,SOUTH,GOVERNMENT-AIDED SCH,GIRLS' SCHOOL,SINGLE SESSION,PRIMARY,No,No,No,No,Chinese,Malay,Tamil,1.30438115,103.8459288
ST. STEPHEN'S SCHOOL,http://www.ststephens.moe.edu.sg,20   SIGLAP VIEW,455789,62419513,64441645,64422576,na,STSTEPHENSCH@MOE.EDU.SG,Kembangan MRT Station,"2,7,24,25,26,28,30,32,33,67,854",MR GOH HENG LIANG TIMOTHY,MR EDWIN HENG TOW YANG,,,,,,BEDOK,EAST,GOVERNMENT-AIDED SCH,BOYS' SCHOOL,SINGLE SESSION,PRIMARY,No,No,No,No,Chinese,Malay,Tamil,1.318257,103.9182735
STAMFORD PRIMARY SCHOOL,http://www.stamfordpri.moe.edu.sg,1    VICTORIA LANE,198423,62945074,na,62919262,na,STAMFORD_PS@MOE.EDU.SG,"Bugis MRT Station, Jalan Besar MRT Station","Along Victoria Street:2,7,12,32,33, 51, 61,63,80,130,133,145, 175, 197",MDM FAN YUEN FUN CASSIE,MDM RAHIMA BTE ABDUL RAHMAN,,,,,,CENTRAL,SOUTH,GOVERNMENT SCHOOL,CO-ED SCHOOL,SINGLE SESSION,PRIMARY,No,No,No,No,Chinese,Malay,Tamil,1.3038409,103.857301
TAMPINES NORTH PRIMARY SCHOOL,http://www.tampinesnorthpri.moe.edu.sg,30   TAMPINES AVENUE 9,529565,67854329,na,67863117,na,TNPS@MOE.EDU.SG,Tampines MRT,"SBS Transit 28, 29, 293",MDM RATNA KUMARI D/O R RAMACHANDRA,MR HO FU CHEW,MR MOHAMED IMRAN B MOHAMED IHSAN,,,,,TAMPINES,EAST,GOVERNMENT SCHOOL,CO-ED SCHOOL,SINGLE SESSION,PRIMARY,No,No,No,No,Chinese,Malay,Tamil,1.3605469,103.9491243
TAMPINES PRIMARY SCHOOL,http://www.tampinespri.moe.edu.sg,250  TAMPINES STREET 12,529426,67831190,na,67843521,na,TPPS@MOE.EDU.SG,Tampines MRT,"8, 10, 17,18, 27, 31, 65, 292, 293, or any bus going into Tampines Interchange",MDM LEE LAY SEE/ MRS LAY SEE NEUFELD,MRS ZAHIRA BINTE MOHAMED SEDIK,,,,,,TAMPINES,EAST,GOVERNMENT SCHOOL,CO-ED SCHOOL,SINGLE SESSION,PRIMARY,No,No,No,No,Chinese,Malay,Tamil,1.3503174,103.9439019
TANJONG KATONG PRIMARY SCHOOL,http://www.tanjongkatongpri.moe.edu.sg/,10   Seraya Road,437259,63444728,na,63445370,na,TKPS@MOE.EDU.SG,na,na,MDM CHUA LAY TIN,MDM HOO WAI LING,MDM TOH LENG LENG,,,,,MARINE PARADE,EAST,GOVERNMENT SCHOOL,CO-ED SCHOOL,SINGLE SESSION,PRIMARY,No,No,No,No,Chinese,Malay,Tamil,1.30530945,103.9004409
TAO NAN SCHOOL,http://www.taonan.moe.edu.sg,49   MARINE CRESCENT,449761,64428307,na,64435973,na,taonan_sch@moe.edu.sg,"Paya Lebar, Eunos","13, 16, 31, 36, 43, 48, 55, 134, 196, 197",MDM POH QINYU,MR LEOW YEN MIN (LIAO YANMING),MISS CHOW CHIA MIN AGNES,,,,,MARINE PARADE,EAST,GOVERNMENT-AIDED SCH,CO-ED SCHOOL,SINGLE SESSION,PRIMARY,Yes,No,Yes,No,Chinese,na,na,1.30492865,103.9111451
TECK GHEE PRIMARY SCHOOL,http://www.teckgheepri.moe.edu.sg,1    ANG MO KIO STREET 32,569299,64548769,na,64589886,na,tgps@moe.edu.sg,Ang Mo Kio & Bishan,"22,24,135,853,162,262,159",MR WONG JIA WANG,MDM RAPS AZRINAH,,,,,,ANG MO KIO,SOUTH,GOVERNMENT SCHOOL,CO-ED SCHOOL,SINGLE SESSION,PRIMARY,No,No,No,No,Chinese,Malay,Tamil,1.36536405,103.8509424
TECK WHYE PRIMARY SCHOOL,http://www.teckwhyepri.moe.edu.sg,11   TECK WHYE WALK,688261,67691025,na,67635191,na,twps@moe.edu.sg,Choa Chu Kang MRT & LRT,"975, 190 & 985",MISS WONG LIANG- JI TABITHA,MRS CHAY GEK NOI,,,,,,CHOA CHU KANG,WEST,GOVERNMENT SCHOOL,CO-ED SCHOOL,SINGLE SESSION,PRIMARY,No,No,No,No,Chinese,Malay,Tamil,1.3838682,103.7536444
TELOK KURAU PRIMARY SCHOOL,http://www.telokkuraupri.moe.edu.sg,50   BEDOK RESERVOIR RD,479239,62441600,na,62442182,na,telokkuraups@moe.edu.sg,Kaki Bukit MRT (nearest),"8, 15, 22, 55, 65, 60,66, 87 & 506",MISS LAU WAN SZE,MDM CHUA WANG LING IRENE,,,,,,BEDOK,EAST,GOVERNMENT SCHOOL,CO-ED SCHOOL,SINGLE SESSION,PRIMARY,No,No,No,No,Chinese,Malay,Tamil,1.3308798,103.9113156
TEMASEK PRIMARY SCHOOL,http://www.temasekpri.moe.edu.sg,501  BEDOK SOUTH AVE 3,469300,64438134,na,64495871,na,temasek_ps@moe.edu.sg,Tanah Merah MRT,"229, 10, 14, 13, 48, 43, 506",MDM ANG GEK LENG ALISON AMANDA,MDM HASLINDAH BTE BAHROM,,,,,,BEDOK,EAST,GOVERNMENT SCHOOL,CO-ED SCHOOL,SINGLE SESSION,PRIMARY,No,No,No,No,Chinese,Malay,Tamil,1.31740605,103.9457677
TOWNSVILLE PRIMARY SCHOOL,http://www.townsvillepri.moe.edu.sg/,3    ANG MO KIO AVE 10,569730,64574345,na,64570141,na,TOWNSVILLEPS@MOE.EDU.SG,"Bishan MRT, Ang Mo Kio MRT Stations","45, 50, 55, 261, 548, 22, 24, 128, 135, 159, 162, 162M, 262, 853",MR TAN BOON HONG VICTOR,MDM LYNETTE FERNANDEZ,,,,,,ANG MO KIO,SOUTH,GOVERNMENT SCHOOL,CO-ED SCHOOL,SINGLE SESSION,PRIMARY,No,No,No,No,Chinese,Malay,Tamil,1.36043645,103.8540368
UNITY PRIMARY SCHOOL,http://www.unitypri.moe.edu.sg,21   CHOA CHU KANG CRESCENT,688268,67676750,na,67676751,na,UNITY_PS@MOE.EDU.SG,Yew Tee MRT,TIBs 302,MRS LEE-KOH SIEW CHENG,MR KOH PENG YEOW,MDM LEE SUET FONG,,,,,CHOA CHU KANG,WEST,GOVERNMENT SCHOOL,CO-ED SCHOOL,SINGLE SESSION,PRIMARY,No,No,No,No,Chinese,Malay,na,1.40273665,103.7467533
VALOUR PRIMARY SCHOOL,valourpri.moe.edu.sg,49   Punggol Central,828728,62426390,na,na,na,valour_ps@moe.edu.sg,na,na,MRS CHARIS WONG,MDM TAN PIN PIN,,,,,,PUNGGOL,EAST,GOVERNMENT SCHOOL,CO-ED SCHOOL,SINGLE SESSION,PRIMARY,No,No,No,No,Chinese,Malay,na,1.4072779,103.8988572
WATERWAY PRIMARY SCHOOL,https://waterwaypri.moe.edu.sg,70   Punggol Drive,828802,6636 6880,na,6315 3451,na,waterway_ps@moe.edu.sg,Kadaloor LRT Station,"50, 381",MRS WEE KWAN LIAM,MDM CHUA KIM LAN JUDY,,,,,,PUNGGOL,EAST,GOVERNMENT SCHOOL,CO-ED SCHOOL,SINGLE SESSION,PRIMARY,No,No,No,No,Chinese,Malay,Tamil,1.3992088,103.9183941
WELLINGTON PRIMARY SCHOOL,http://www.wellingtonpri.moe.edu.sg,10   WELLINGTON CIRCLE,757702,67533319,na,67533765,na,WELLINGTONPS@MOE.EDU.SG,Sembawang MRT,"980, 856, 859",MR ALCANTARA ALBERT ALFRED,MS KONG YEE LOON,,,,,,SEMBAWANG,NORTH,GOVERNMENT SCHOOL,CO-ED SCHOOL,SINGLE SESSION,PRIMARY,No,No,No,No,Chinese,Malay,Tamil,1.45213625,103.8224126
WEST GROVE PRIMARY SCHOOL,http://www.westgrovepri.moe.edu.sg/,1    JURONG WEST ST 72,649223,62679234,na,62679235,na,WGPS@MOE.EDU.SG,Boon Lay MRT,"Bus 99, 242",MRS CHANDLER JAY SIVA,MDM SITI RASHIDAH BTE ABDUL RAHMAN,,,,,,JURONG WEST,WEST,GOVERNMENT SCHOOL,CO-ED SCHOOL,SINGLE SESSION,PRIMARY,No,No,No,No,Chinese,Malay,Tamil,1.34468085,103.6989833
WEST SPRING PRIMARY SCHOOL,http://www.westspringpri.moe.edu.sg,60   Bukit Panjang Ring Road,679946,63144192,na,na,63140648,westspring_ps@moe.edu.sg,Jelapang LRT,"920, 922",MR WILLY TAN NGUAN PENG,MDM KUM LAI MENG,MR SIM KOOI SUEN,,,,,BUKIT PANJANG,WEST,GOVERNMENT SCHOOL,CO-ED SCHOOL,SINGLE SESSION,PRIMARY,No,No,No,No,Chinese,Malay,Tamil,1.38952295,103.7662653
WEST VIEW PRIMARY SCHOOL,http://www.westviewpri.moe.edu.sg,31   SENJA ROAD,677742,67600178,na,67600147,na,wvps@moe.edu.sg,"Bukit Panjang MRT, SENJA LRT (A13)","170,171,176,178,180,000,000,000,000,000",MR EDDIE FOO CHIT CHEONG,MDM LAI SEOW POH,,,,,,BUKIT PANJANG,WEST,GOVERNMENT SCHOOL,CO-ED SCHOOL,SINGLE SESSION,PRIMARY,No,No,No,No,Chinese,Malay,Tamil,1.3834687,103.7600629
WESTWOOD PRIMARY SCHOOL,http://www.westwoodpri.moe.edu.sg,1    Jurong West Street 73,649188,64121690,na,67945084,na,westwood_ps@moe.edu.sg,Boon Lay MRT Station,"181, 502 & 243",MR MAH SENG THONG ANDREW,MRS RUTH TAI MEI FEN,MR LOW MIN CHYE,,,,,JURONG WEST,WEST,GOVERNMENT SCHOOL,CO-ED SCHOOL,SINGLE SESSION,PRIMARY,No,No,No,No,Chinese,Malay,Tamil,1.34744235,103.700513
WHITE SANDS PRIMARY SCHOOL,http://www.whitesandspri.moe.edu.sg,2    PASIR RIS ST 11,519075,69229100,na,65815013,na,wsps@moe.edu.sg,Pasir Ris MRT Station,"12, 17, 21, 39, 53, 81, 518, 109",MDM WONG LIN LIN AUDREY,MDM GOH SWEE LIN EVELYN,MS REZINA KHAN D/O ABDUL RAHIM,,,,,PASIR RIS,EAST,GOVERNMENT SCHOOL,CO-ED SCHOOL,SINGLE SESSION,PRIMARY,No,No,No,No,Chinese,Malay,Tamil,1.36547295,103.9612546
WOODGROVE PRIMARY SCHOOL,http://www.woodgrovepri.moe.edu.sg/,2    WOODLANDS DRIVE 14,738079,68943371,na,68943372,na,WOODGROVE_PS@MOE.EDU.SG,Woodlands MRT Station,901,MS ADELINE TAN WEE KIAW,MRS AHKEELA JULIA EDISON,DR. NG SIEW HIANG SALLY,,,,,WOODLANDS,NORTH,GOVERNMENT SCHOOL,CO-ED SCHOOL,SINGLE SESSION,PRIMARY,No,No,No,No,Chinese,Malay,Tamil,1.4331091,103.7903127
WOODLANDS PRIMARY SCHOOL,http://www.woodlandspri.moe.edu.sg,10   WOODLANDS DRIVE 50,738853,62697410,na,63671165,na,wdp@moe.edu.sg,Woodlands,912 & 912E,MISS KUCK LI LIAN LILLIAN,MDM WONG YEN LING,MDM KOMATHI D/O GOVINDASAMY,,,,,WOODLANDS,NORTH,GOVERNMENT SCHOOL,CO-ED SCHOOL,SINGLE SESSION,PRIMARY,No,No,No,No,Chinese,Malay,Tamil,1.43669555,103.7916902
WOODLANDS RING PRIMARY SCHOOL,HTTP://www.woodlandsringpri.moe.edu.sg,11   WOODLANDS RING ROAD,738240,63643679,na,63643490,na,WRPS@MOE.EDU.SG,Admiralty MRT Station,912,MISS GEETHA D/O DORAISAMY,"MR BOH CHEK KEOW, THOMAS",,,,,,WOODLANDS,NORTH,GOVERNMENT SCHOOL,CO-ED SCHOOL,SINGLE SESSION,PRIMARY,No,No,No,No,Chinese,Malay,Tamil,1.43466535,103.7978405
XINGHUA PRIMARY SCHOOL,http://www.xinghuapri.moe.edu.sg,45   HOUGANG AVENUE 1,538882,62889121,na,62838831,na,XINGHUA_PS@MOE.EDU.SG,Kovan MRT Station,"Bus services 53, 62, 112, 113, 115",MR CHEW MUN WAI,MR CHONG CHOONG HIAN,,,,,,HOUGANG,SOUTH,GOVERNMENT SCHOOL,CO-ED SCHOOL,SINGLE SESSION,PRIMARY,No,No,No,No,Chinese,Malay,Tamil,1.3580028,103.890515
XINGNAN PRIMARY SCHOOL,http://www.xingnanpri.moe.edu.sg,5    JURONG WEST STREET 91,649036,67913679,na,67921493,na,XINGNAN_PS@MOE.EDU.SG,Pioneer MRT Station,Bus 99 & 241,MR CHAN GEOK ANN CHARLES,MDM S ANITHA,MRS ONG LAY KHIM,,,,,JURONG WEST,WEST,GOVERNMENT SCHOOL,CO-ED SCHOOL,SINGLE SESSION,PRIMARY,No,No,No,No,Chinese,Malay,Tamil,1.3407142,103.6869025
XINMIN PRIMARY SCHOOL,http://www.xinminpri.moe.edu.sg/,9    HOUGANG AVENUE 8,538784,62835479,na,62880334,na,xinmin_ps@moe.edu.sg,Nil,"74, 147, 165, 112",MDM TAN KAY LING,MR MOHAMED YAZEED BIN MOHAMED SAID,,,,,,HOUGANG,NORTH,GOVERNMENT SCHOOL,CO-ED SCHOOL,SINGLE SESSION,PRIMARY,No,No,No,No,Chinese,Malay,Tamil,1.3714019,103.8831786
XISHAN PRIMARY SCHOOL,https://www.xishanpri.moe.edu.sg/,8    YISHUN STREET 21,768611,67588837,na,67588361,na,XISHAN_PS@MOE.EDU.SG,o   Alight at Yishun MRT Station o   Take Exit C o   Walk towards Yishun Street 21,"Along Yishun Ave 2,take Bus Service 117, 169, 804, 812, 965. Alight at Blk 220. Along Yishun Ring Road,take Bus Service 1N, 800, 804, NR1. Alight at Blk 227 or 236.",MRS QUEK-SIM KIM LIANG ANNE,MISS LATHA D/O SINASAMY,,,,,,YISHUN,NORTH,GOVERNMENT SCHOOL,CO-ED SCHOOL,SINGLE SESSION,PRIMARY,No,No,No,No,Chinese,Malay,Tamil,1.43343,103.8377866
YANGZHENG PRIMARY SCHOOL,http://www.yangzhengpri.moe.edu.sg/,15   SERANGOON AVENUE 3,556108,62846298,na,62879778,na,YZPS@MOE.EDU.SG,Serangoon Station,"58 & 105 (Outside the school, Serangoon Ave 3) 133 & 135(Serangoon Ave 2)",MRS LIM- FOO BOON CHING,MDM NG LI YI,,,,,,SERANGOON,SOUTH,GOVERNMENT SCHOOL,CO-ED SCHOOL,SINGLE SESSION,PRIMARY,No,No,No,No,Chinese,Malay,Tamil,1.34876345,103.8684636
YEW TEE PRIMARY SCHOOL,http://www.yewteepri.moe.edu.sg,10   CHOA CHU KANG ST 64,689100,67670027,na,67675450,na,YTPS@MOE.EDU.SG,Yew Tee MRT Station,307,MISS ANG MUI KHOONG,MDM SIM EE KOON PATRICIA,MDM TOH GUAT HWA PAULINE,,,,,CHOA CHU KANG,WEST,GOVERNMENT SCHOOL,CO-ED SCHOOL,SINGLE SESSION,PRIMARY,No,No,No,No,Chinese,Malay,Tamil,1.39696185,103.751093
YIO CHU KANG PRIMARY SCHOOL,http://www.yiochukangpri.moe.edu.sg,1    HOUGANG STREET 51,538720,63851365,na,63855915,na,admin_yckps@moe.edu.sg,Hougang MRT Station Yio Chu Kang MRT Station,"88,101,109,159,161 and 325",MR NG AIK BOON,MR CHAN TUCK CHEONG,MDM RAMACHANDRA SUGUNA,,,,,HOUGANG,NORTH,GOVERNMENT SCHOOL,CO-ED SCHOOL,SINGLE SESSION,PRIMARY,No,No,No,No,Chinese,Malay,Tamil,1.37791475,103.8854613
YISHUN PRIMARY SCHOOL,http://www.yishunpri.moe.edu.sg,500  YISHUN RING ROAD,768679,62577461,na,67554198,na,YPS@MOE.EDU.SG,Yishun,Translink Feeder Service 800 & 812,MR CHAN WENG YEW MARVIN,MR SADANANDHAN S/O PALANI ANANDAN,MR TAN YEW LEE,,,,,YISHUN,NORTH,GOVERNMENT SCHOOL,CO-ED SCHOOL,SINGLE SESSION,PRIMARY,No,No,No,No,Chinese,Malay,Tamil,1.4335987,103.8338869
YU NENG PRIMARY SCHOOL,http://www.ynps.moe.edu.sg/,56   BEDOK NORTH ST 3,469623,64490121,na,64498564,na,YNPS@MOE.EDU.SG,"Bedok MRT Station (East-West Line), Bedok Reservoir MRT STation (Downtown line)","14, 17, 18, 28, 66, 67, 69, 225",MR NG YEOW LING,MRS TAY-LEE LI THENG,MISS ONG PEI FEN JAMIE,,,,,BEDOK,EAST,GOVERNMENT SCHOOL,CO-ED SCHOOL,SINGLE SESSION,PRIMARY,No,No,No,No,Chinese,Malay,na,1.33432875,103.9328293
YUHUA PRIMARY SCHOOL,http://www.yuhuapri.moe.edu.sg,158  JURONG EAST STREET 24,609558,65605062,na,65648278,na,YUHUA_PS@MOE.EDU.SG,"Jurong East, Bukit Batok","98,98A,187,333,502,507,NR5",MDM TENG LAI KWAN,MDM HEATHER SIM SIAW CHENG,MDM ZOEY LIM CHING SIA,,,,,JURONG EAST,WEST,GOVERNMENT SCHOOL,CO-ED SCHOOL,SINGLE SESSION,PRIMARY,No,No,No,No,Chinese,Malay,Tamil,1.3428913,103.74096
YUMIN PRIMARY SCHOOL,http://www.yuminpri.moe.edu.sg,3    TAMPINES STREET 21,529393,67811262,na,67845554,na,YUMIN_PS@MOE.EDU.SG,Tampines MRT Station,na,MDM CHILUKURI DIMPS RAO,MR ABDUL MUTALIB B MOHAMMED AMIN,MRS SHARON CLARISSA FOO,,,,,TAMPINES,EAST,GOVERNMENT SCHOOL,CO-ED SCHOOL,SINGLE SESSION,PRIMARY,No,No,No,No,Chinese,Malay,na,1.3512643,103.9508735
ZHANGDE PRIMARY SCHOOL,http://www.zhangdepri.moe.edu.sg/,51   Jalan Membina,169485,62740357,na,62763042,na,ZHANGDE_PS@MOE.EDU.SG,Tiong Bahru MRT Station,"16,33,63,123,195,605,851,14,65,147,167,196,197,961",MDM RITA RAJLAL,MISS TAY HWEE LIN,MRS PEGGY KOH,,,,,BUKIT MERAH,SOUTH,GOVERNMENT SCHOOL,CO-ED SCHOOL,SINGLE SESSION,PRIMARY,No,No,No,No,Chinese,Malay,Tamil,1.2842497,103.8260819
ZHENGHUA PRIMARY SCHOOL,http://www.zhenghuapri.moe.edu.sg,9    Fajar Road,679002,67697478,na,67636459,na,zhenghua_ps@moe.edu.sg,LRT: Fajar Station,"190, 184, 187, 700, 700A, 921",MDM WONG HIAN HWEE CONSTANCE,MDM JOSEPHINE SNG,MISS SANTHANA MARY D/O POOBALAN,,,,,BUKIT PANJANG,WEST,GOVERNMENT SCHOOL,CO-ED SCHOOL,SINGLE SESSION,PRIMARY,No,No,No,No,Chinese,Malay,Tamil,1.3794259,103.7696661
ZHONGHUA PRIMARY SCHOOL,http://www.zhonghuapri.moe.edu.sg,12   SERANGOON AVENUE 4,556095,62835413,na,62823882,na,zhonghua_ps@moe.edu.sg,"Ang Mo Kio MRT, Bishan MRT, Serangoon MRT","Boundary Road: 22,24,53,105,156,315,853,501,502 Yio Chu Kang Road: 70,76,103,147,156,501,502",MDM ROSTINAH BTE MOHAMAD SAID,MDM THAM SIEW LENG,MRS TRINA YEE-POOK SIM NAR,,,,,SERANGOON,SOUTH,GOVERNMENT SCHOOL,CO-ED SCHOOL,SINGLE SESSION,PRIMARY,No,No,No,No,Chinese,Malay,Tamil,1.3599114,103.8697102
ANGLO-CHINESE SCHOOL (INDEPENDENT),http://www.acsindep.moe.edu.sg,121  DOVER ROAD,139650,67731633,na,67731433,na,ACIS@MOE.EDU.SG,"DOVER MRT, BUONA VISTA MRT, ONE-NORTH MRT","33, 74, 166, 196",MR KOH SUNG- YI ARENE,MRS TEO LAI CHENG JUDY-HO,MISS CHOCK SIEW HWA,MDM YONG LEE HAR,MR SOO MUN KEONG PATRICK,MR CHIEW TECK TZER TERENCE,DR YONG YUN LEONG ANDREW,QUEENSTOWN,SOUTH,INDEPENDENT SCHOOL,CO-ED SCHOOL,SINGLE SESSION,MIXED LEVELS,No,No,Yes,Yes,Chinese,Malay,Tamil,1.3029215,103.7805511
CATHOLIC HIGH SCHOOL,http://www.catholichigh.moe.edu.sg,9    BISHAN STREET 22,579767,64582177 (Secondary),64589869 (Primary),64561322 (Secondary),64593938 (Primary),chs@moe.edu.sg,BISHAN MRT,"13, 52, 54, 88, 156, 162, 162M, 410",MR POH CHUN LECK,MISS HO PING PING,MS TAN PEY SAN,MR TAN KELLY,,,,BISHAN,NORTH,GOVERNMENT-AIDED SCH,BOYS' SCHOOL,SINGLE SESSION,MIXED LEVELS,Yes,Yes,Yes,Yes,Chinese,na,na,1.35492755,103.8449883
CHIJ ST. NICHOLAS GIRLS' SCHOOL,http://www.chijstnicholasgirls.moe.edu.sg,501  ANG MO KIO STREET 13,569405,63541839 (Secondary),64549698 (Primary),64511335 (Secondary),64566169 (Primary),chijsng_sec@moe.edu.sg,"ANG MO KIO MRT, YIO CHU KANG MRT, MAYFLOWER MRT (End 2021)","76, 265, 268, 269",MDM FIONA YEO SU LING,MISS YEO TECK WOON,MS BAEY EE-LYN,MDM AMY TAN,MR TING POH LEONG ALOYSIUS,,,ANG MO KIO,NORTH,GOVERNMENT-AIDED SCH,GIRLS' SCHOOL,SINGLE SESSION,MIXED LEVELS,Yes,Yes,No,Yes,Chinese,na,na,1.37344905,103.8340777
DUNMAN HIGH SCHOOL,http://www.dunmanhigh.moe.edu.sg,10   TANJONG RHU ROAD,436895,63450533,na,63442316,na,DHS@MOE.EDU.SG,"ALJUNIED MRT, KALLANG MRT, MOUNTBATTEN MRT","12, 14, 30, 158, 196",MR LOW TECK ENG TONY,MISS LIE SUYIN JAMIE,MDM LEONG SOOK HING,MR CHUA KAH SHENG,,,,KALLANG,EAST,GOVERNMENT SCHOOL,CO-ED SCHOOL,SINGLE SESSION,MIXED LEVELS,Yes,Yes,Yes,Yes,Chinese,na,na,1.2987458,103.882188
HWA CHONG INSTITUTION,http://www.hwachong.edu.sg,661  BUKIT TIMAH ROAD,269734,64683955,64683956 / 64665912,67695857,na,admin@hci.edu.sg,TAN KAH KEE MRT,"66, 67, 74, 151, 154, 156, 157, 170, 170A, 174, 852, 961, 961M",MR PANG CHOON HOW,DR LIM HONG SENG MELVYN,MR CHAN KWOK LEONG,MRS CHIN-LEOW BEE KUAN,DR CHUNG WEN CHEE,,,BUKIT TIMAH,WEST,INDEPENDENT SCHOOL,CO-ED SCHOOL,SINGLE SESSION,MIXED LEVELS,Yes,No,No,Yes,Chinese,na,na,1.32627975,103.8035258
MARIS STELLA HIGH SCHOOL,http://www.marisstellahigh.moe.edu.sg,25   MOUNT VERNON ROAD,368051,62803880 (Sec),62827743 (Pri),62886905 (Sec),62827905 (Pri),msh@moe.edu.sg,BARTLEY MRT,"28, 93, 129, 158",MRS WOO SOO MIN,MRS MARIA KOH,MR LIM KAY WAH BENEDICT,MR TAN CHING HUAT,MR TAN KIM KOON,,,TOA PAYOH,NORTH,GOVERNMENT-AIDED SCH,BOYS' SCHOOL,SINGLE SESSION,MIXED LEVELS,Yes,Yes,No,No,Chinese,na,na,1.34203865,103.8783276
NATIONAL JUNIOR COLLEGE,http://www.nationaljc.moe.edu.sg,37   HILLCREST ROAD,288913,64661144,na,64684535,na,NJC@MOE.EDU.SG,"BOTANIC GARDENS MRT, TAN KAH KEE MRT, SIXTH AVENUE MRT","66, 67, 74, 151, 154, 156, 157, 170, 174, 852, 961, 972",MR ANG POW CHEW,MR HARMAN AUGUSTUS JOHLL,MDM TAN PHUAY BOON,,,,,BUKIT TIMAH,SOUTH,GOVERNMENT SCHOOL,CO-ED SCHOOL,FULL DAY,MIXED LEVELS,No,No,No,Yes,Chinese,Malay,Tamil,1.330727,103.8044167
NUS HIGH SCHOOL OF MATHEMATICS AND SCIENCE,www.nushigh.edu.sg,20   Clementi Avenue 1,129957,65161709,na,67756910,na,einstein@highsch.nus.edu.sg,Nearest MRT Stations - Clementi and Dover,"96, 97, 151, 183, 188, 189, 196, 197, 198",MDM SOH LAI LENG MAGDALEN,MR GOH HOCK LEONG,MR CLIFTON KOH SIEW BOON,,,,,CLEMENTI,WEST,SPECIALISED INDEPENDENT SCHOOL,CO-ED SCHOOL,FULL DAY,MIXED LEVELS,No,No,No,Yes,Chinese,Malay,Tamil,1.3069962,103.7699956
RAFFLES INSTITUTION,http://www.ri.edu.sg,1    RAFFLES INSTITUTION LANE,575954,64199242,na,64199238,na,comms@ri.edu.sg,"BISHAN MRT, MARYMOUNT MRT","410,13,50,52,53,54,55,56,57,58,59,71,74,88,93,128,130,132,156,157,162,163,165,166,167,851,852,855,980",MR YEO KOK PENG FREDERICK,MDM THOR POH SIN THERESA,MR EDWARD NG,MR CHEN ZIYANG,MR ANG PENG SIONG BRIAN LAGMAN,MRS REAVLEY MUNN YE,MS NG MEI SZE,BISHAN,SOUTH,INDEPENDENT SCHOOL,CO-ED SCHOOL,SINGLE SESSION,MIXED LEVELS,No,No,Yes,Yes,Chinese,Malay,Tamil,1.34663115,103.8445196
RIVER VALLEY HIGH SCHOOL,https://rivervalleyhigh.moe.edu.sg/,6    BOON LAY AVENUE,649961,65678115,na,65677351,na,RVHS@MOE.EDU.SG,"BOON LAY MRT, LAKESIDE MRT","99, 157, 172, 174, 174E, 198, 240, 502, 974, NR5",MRS TEO KHIN HIANG NEE LEE WAI TAI,MR LAU WAI CHI ALVIN,MR KWOK YING LIANG,"MR LIM PENG YUAN, ANDY",,,,JURONG WEST,WEST,GOVERNMENT SCHOOL,CO-ED SCHOOL,SINGLE SESSION,MIXED LEVELS,Yes,Yes,No,Yes,Chinese,na,na,1.3433953,103.7092588
"SCHOOL OF THE ARTS, SINGAPORE",http://www.sota.edu.sg/,1    Zubir Said Drive,227968,6338 9663,6342 5857,6338 9763,na,enquiries@sota.edu.sg,Dhoby Ghaut,"7, 14, 16, 36, 64, 65, 77, 106, 111, 124, 128, 131, 147, 162, 166, 167, 171, 174, 175, 190, 502, 518, 700, 857,",MDM WONG YEE MIN MARY,MR HO KOK SUN KEVIN,MS KHOO MEI LING AMY,MISS PAULINE ANN TAN POH LING,,,,CENTRAL,SOUTH,SPECIALISED INDEPENDENT SCHOOL,CO-ED SCHOOL,SINGLE SESSION,MIXED LEVELS,No,No,No,No,Chinese,Malay,Tamil,1.2990858,103.8490353
SINGAPORE SPORTS SCHOOL,http://www.sportsschool.edu.sg,1    Champions Way,737913,67660100,na,67662100,na,enquire@sportsschool.edu.sg,Woodlands South MRT,"665, 900A, 901, 901M",MR ONG KIM SOON,MR HO BENG KIAT,MISS LOW YING XIU,,,,,WOODLANDS,NORTH,SPECIALISED INDEPENDENT SCHOOL,CO-ED SCHOOL,FULL DAY,MIXED LEVELS,No,No,No,No,Chinese,Malay,Tamil,1.4272654,103.7877292
ST. JOSEPH'S INSTITUTION,http://www.sji.edu.sg,38   MALCOLM ROAD,308274,62500022,na,62533640,na,contact@sji.edu.sg,STEVENS MRT,"105, 132, 151, 153, 154, 156, 186, 190, 960, 972",FR ADRIAN AUGUSTUS DANKER,MR DOMINIC ANG SWEE KENG,MDM LOH YOON LIN,MDM LIM LAY HOON,,,,NOVENA,SOUTH,INDEPENDENT SCHOOL,CO-ED SCHOOL,SINGLE SESSION,MIXED LEVELS,No,No,No,Yes,Chinese,Malay,Tamil,1.3241929,103.828321
TEMASEK JUNIOR COLLEGE,http://www.temasekjc.moe.edu.sg,22   BEDOK SOUTH ROAD,469278,64428066,na,64428762,na,TEMASEK_JC@MOE.EDU.SG,BEDOK MRT,"12, 12E, 16, 31, 38, 47, 137, 155, 196, 196A, 197, 229",MDM SIM AY NAR,MDM TAN KIA HUAN,MR LOW CHEE WAI,,,,,BEDOK,EAST,GOVERNMENT SCHOOL,CO-ED SCHOOL,FULL DAY,MIXED LEVELS,No,No,No,Yes,Chinese,Malay,Tamil,1.31820425,103.9349803
